{
"type": "FeatureCollection",
"name": "all_canals",
"crs": { "type": "name", "properties": { "name": "urn:ogc:def:crs:OGC:1.3:CRS84" } },
"features": [
{"type":"Feature","properties":{"AREA":0.0,"PERIMETER":7538.568,"ID":"Object 1914","CAPTION":"Object 1914","STYLE":24,"Canal_Type":"Main","Location":"Alumenda","layer":"Alumenda Main Canals","path":"C:/Users/Hamza Nkhumbwa/Downloads/Updated Nchalo Estate Data/Updated Nchalo Estate Data/Canals & Dams/Alumenda Main Canals.shp"},"geometry":{"type":"MultiLineString","coordinates":[[[34.929324311103983,-16.374221225411091],[34.924571616095655,-16.37436500135199],[34.924031621055448,-16.374603874394495],[34.920573485287974,-16.376150475039896],[34.918130995194105,-16.37729967625209],[34.910865350505503,-16.380516558881492],[34.903695468648884,-16.38368958832843],[34.897394932315947,-16.386415181604814],[34.893502734080748,-16.388148444847761],[34.887998893594784,-16.390626441825241],[34.884782071340098,-16.393328895740584],[34.879241100516673,-16.397979319272252],[34.876206750886737,-16.400479510984798],[34.873951505184188,-16.402393437436643],[34.872440360746161,-16.403676872061013],[34.867553347412482,-16.40428398765695]]]}},
{"type":"Feature","properties":{"AREA":0.0,"PERIMETER":1208.494,"ID":"0","CAPTION":"2","STYLE":0,"Canal_Type":"Main","Location":"Nchalo","layer":"nchalo main canals","path":"C:/Users/Hamza Nkhumbwa/Downloads/Updated Nchalo Estate Data/Updated Nchalo Estate Data/Canals & Dams/nchalo main canals.shp"},"geometry":{"type":"MultiLineString","coordinates":[[[34.823191463283123,-16.217948995059622],[34.822526700079798,-16.217964292346441],[34.821600714747085,-16.217991417708646],[34.820711113667208,-16.218018227019414],[34.819877713920668,-16.218041354608655],[34.819120391355412,-16.218063827006247],[34.818399423999722,-16.218082789110682],[34.817771102017105,-16.218104151521388],[34.817010529024074,-16.218133036356278],[34.816150694208545,-16.218159571823467],[34.815261030587052,-16.218179966692251],[34.814626062197384,-16.218198180595049],[34.813832321998483,-16.218217749394316],[34.813061823247033,-16.218246705042098],[34.812218495148159,-16.218269887491605],[34.811894365497082,-16.218275850752519]]]}},
{"type":"Feature","properties":{"AREA":0.0,"PERIMETER":2407.829,"ID":"0","CAPTION":"7","STYLE":0,"Canal_Type":"Main","Location":"Nchalo","layer":"nchalo main canals","path":"C:/Users/Hamza Nkhumbwa/Downloads/Updated Nchalo Estate Data/Updated Nchalo Estate Data/Canals & Dams/nchalo main canals.shp"},"geometry":{"type":"MultiLineString","coordinates":[[[34.829766615845912,-16.182295037277584],[34.829378685910577,-16.182303244057842],[34.829116766595433,-16.18231523582455],[34.828245172093517,-16.182332469259272],[34.827922744036549,-16.1823401102906],[34.826874930670492,-16.182373461101662],[34.826522315175325,-16.182386228765182],[34.825378721505267,-16.182415525319463],[34.824083967232866,-16.182446112310934],[34.823157078348778,-16.182478407677582],[34.822467897262086,-16.182496001478004],[34.82175053504092,-16.182517730027808],[34.820928368189037,-16.182540353556842],[34.820069922393849,-16.182563284405937],[34.819199383214233,-16.182586315251722],[34.818441674057915,-16.182604482239665],[34.817712287995676,-16.18263409119119],[34.816990856420503,-16.182651942958397],[34.816245203160229,-16.182666103566874],[34.815418966177049,-16.182684844988756],[34.814645308999083,-16.18272261262236],[34.813823101903303,-16.18274131355339],[34.81324671133391,-16.182750124336142],[34.812726896118356,-16.182774033818795],[34.811683020728523,-16.182798511422817],[34.810824639713559,-16.182829195728306],[34.809970182523131,-16.182848156417137],[34.809079481594544,-16.182871317592063],[34.808176687143678,-16.182894577874468],[34.807261870063705,-16.182925727771202]]]}},
{"type":"Feature","properties":{"AREA":0.0,"PERIMETER":12.438,"ID":"0","CAPTION":"26","STYLE":0,"Canal_Type":"Main","Location":"Nchalo","layer":"nchalo main canals","path":"C:/Users/Hamza Nkhumbwa/Downloads/Updated Nchalo Estate Data/Updated Nchalo Estate Data/Canals & Dams/nchalo main canals.shp"},"geometry":{"type":"MultiLineString","coordinates":[[[34.861780157878016,-16.189556481601048],[34.861718248711348,-16.189461337887479]]]}},
{"type":"Feature","properties":{"AREA":0.0,"PERIMETER":518.942,"ID":"Object 1897","CAPTION":"M Canal","STYLE":24,"Canal_Type":"Main","Location":"Nchalo","layer":"nchalo main canals","path":"C:/Users/Hamza Nkhumbwa/Downloads/Updated Nchalo Estate Data/Updated Nchalo Estate Data/Canals & Dams/nchalo main canals.shp"},"geometry":{"type":"MultiLineString","coordinates":[[[34.85394006317464,-16.21912933130934],[34.852695943248946,-16.21725903510989],[34.852627011840134,-16.217174984508656],[34.852548697934083,-16.217128638988459],[34.852480382126039,-16.217110423598136],[34.851166517607709,-16.217150103411839],[34.850202998476831,-16.217177315794494]]]}},
{"type":"Feature","properties":{"AREA":0.0,"PERIMETER":2871.471,"ID":"Object 1898","CAPTION":"M Canal","STYLE":24,"Canal_Type":"Main","Location":"Nchalo","layer":"nchalo main canals","path":"C:/Users/Hamza Nkhumbwa/Downloads/Updated Nchalo Estate Data/Updated Nchalo Estate Data/Canals & Dams/nchalo main canals.shp"},"geometry":{"type":"MultiLineString","coordinates":[[[34.850212820595175,-16.217186635995393],[34.85003760327848,-16.21718816322424],[34.848042246860054,-16.217224356597725],[34.84337090955048,-16.217387251656362],[34.838611594732306,-16.217513183155862],[34.834922872303977,-16.217610944213924],[34.830767147445428,-16.217740887682698],[34.823370436448975,-16.217964457760733]]]}},
{"type":"Feature","properties":{"AREA":0.0,"PERIMETER":1197.395,"ID":"Object 1899","CAPTION":"M Canal","STYLE":24,"Canal_Type":"Main","Location":"Nchalo","layer":"nchalo main canals","path":"C:/Users/Hamza Nkhumbwa/Downloads/Updated Nchalo Estate Data/Updated Nchalo Estate Data/Canals & Dams/nchalo main canals.shp"},"geometry":{"type":"MultiLineString","coordinates":[[[34.82315610479408,-16.217947486980766],[34.820499280856325,-16.218045538501137],[34.811963823044714,-16.21830669461681]]]}},
{"type":"Feature","properties":{"AREA":0.0,"PERIMETER":3471.226,"ID":"Object 1900","CAPTION":"Object 1900","STYLE":24,"Canal_Type":"Main","Location":"Nchalo","layer":"nchalo main canals","path":"C:/Users/Hamza Nkhumbwa/Downloads/Updated Nchalo Estate Data/Updated Nchalo Estate Data/Canals & Dams/nchalo main canals.shp"},"geometry":{"type":"MultiLineString","coordinates":[[[34.854053200417731,-16.219327379659759],[34.857625730591394,-16.224675981233638],[34.857703453646714,-16.224731243578216],[34.857751964986853,-16.224758790246646],[34.858279729539916,-16.224437159136798],[34.864996112665111,-16.220294414289771],[34.870666235298771,-16.216776072810912],[34.870790972513234,-16.216700383457983],[34.870829569842556,-16.21670004328108],[34.870877992556146,-16.216718264004442],[34.870916853974968,-16.216745892742161],[34.871014843847036,-16.216903532894289],[34.876350639477479,-16.224977401954341]]]}},
{"type":"Feature","properties":{"AREA":0.0,"PERIMETER":4461.939,"ID":"Object 1901","CAPTION":"M Canal","STYLE":24,"Canal_Type":"Main","Location":"Nchalo","layer":"nchalo main canals","path":"C:/Users/Hamza Nkhumbwa/Downloads/Updated Nchalo Estate Data/Updated Nchalo Estate Data/Canals & Dams/nchalo main canals.shp"},"geometry":{"type":"MultiLineString","coordinates":[[[34.876448461544598,-16.225116392719297],[34.878602175391137,-16.228341986913893],[34.878758430802513,-16.228536401088252],[34.878892732688428,-16.22845129813733],[34.879084579672451,-16.228328390548949],[34.883401913302798,-16.225651497927988],[34.888045698030183,-16.22281312106497],[34.893293154474662,-16.219540381949265],[34.895173545182317,-16.218386114099641],[34.901006397934871,-16.214800299117137],[34.908594357315934,-16.210117037389164],[34.910359404195297,-16.20902895309219]]]}},
{"type":"Feature","properties":{"AREA":0.0,"PERIMETER":3642.738,"ID":"Object 1902","CAPTION":"Earth canal","STYLE":24,"Canal_Type":"Main","Location":"Nchalo","layer":"nchalo main canals","path":"C:/Users/Hamza Nkhumbwa/Downloads/Updated Nchalo Estate Data/Updated Nchalo Estate Data/Canals & Dams/nchalo main canals.shp"},"geometry":{"type":"MultiLineString","coordinates":[[[34.910761955523633,-16.208745623847889],[34.911367577884107,-16.2085070841499],[34.911981408791689,-16.20811929173448],[34.912201440271758,-16.20792151553885],[34.914666776356036,-16.204412288904951],[34.916732205514187,-16.201466063233124],[34.91776864064289,-16.199881028574683],[34.919958233207574,-16.19681245279919],[34.921072797589034,-16.195329259383222],[34.922081308943241,-16.19385634433263],[34.923889290861673,-16.191248043079323],[34.925393385177934,-16.189145953723671],[34.925630236397197,-16.188696278991177],[34.925760962587496,-16.188247565500614],[34.925803684046578,-16.187678443220509],[34.925933776348032,-16.187164470697954],[34.926158896576915,-16.186500460821279],[34.926783149840468,-16.185208158068725],[34.927339501830573,-16.18387917544371],[34.92779361790523,-16.182952030187902],[34.927820025939056,-16.182690732139658],[34.927810071091848,-16.181665234830611],[34.92791275251988,-16.181310010100383],[34.928026076443416,-16.181057247642983]]]}},
{"type":"Feature","properties":{"AREA":0.0,"PERIMETER":2278.675,"ID":"Object 1903","CAPTION":"Z Canal","STYLE":24,"Canal_Type":"Main","Location":"Nchalo","layer":"nchalo main canals","path":"C:/Users/Hamza Nkhumbwa/Downloads/Updated Nchalo Estate Data/Updated Nchalo Estate Data/Canals & Dams/nchalo main canals.shp"},"geometry":{"type":"MultiLineString","coordinates":[[[34.89019481838173,-16.245877812082082],[34.886538948430577,-16.240393357517021],[34.886424423486915,-16.240192344479464],[34.882670637044612,-16.234537720578807],[34.878867642221095,-16.228759114544495],[34.878752690319089,-16.22851147652003]]]}},
{"type":"Feature","properties":{"AREA":0.0,"PERIMETER":421.078,"ID":"Object 1904","CAPTION":"280 Canal","STYLE":24,"Canal_Type":"Main","Location":"Nchalo","layer":"nchalo main canals","path":"C:/Users/Hamza Nkhumbwa/Downloads/Updated Nchalo Estate Data/Updated Nchalo Estate Data/Canals & Dams/nchalo main canals.shp"},"geometry":{"type":"MultiLineString","coordinates":[[[34.878704731282077,-16.228542983309829],[34.878400597185852,-16.228701086784596],[34.875379468006301,-16.230579715743534]]]}},
{"type":"Feature","properties":{"AREA":0.0,"PERIMETER":1606.234,"ID":"Object 1905","CAPTION":"280 Canal","STYLE":24,"Canal_Type":"Main","Location":"Nchalo","layer":"nchalo main canals","path":"C:/Users/Hamza Nkhumbwa/Downloads/Updated Nchalo Estate Data/Updated Nchalo Estate Data/Canals & Dams/nchalo main canals.shp"},"geometry":{"type":"MultiLineString","coordinates":[[[34.875198745503049,-16.230691705000382],[34.873691016801665,-16.231628303384262],[34.870995612081082,-16.233297936454139],[34.868821624436343,-16.234636787515704],[34.864747350530784,-16.237156471495648],[34.862542253912885,-16.238510592824024]]]}},
{"type":"Feature","properties":{"AREA":0.0,"PERIMETER":1220.082,"ID":"Object 1906","CAPTION":"411 Canal","STYLE":24,"Canal_Type":"Main","Location":"Nchalo","layer":"nchalo main canals","path":"C:/Users/Hamza Nkhumbwa/Downloads/Updated Nchalo Estate Data/Updated Nchalo Estate Data/Canals & Dams/nchalo main canals.shp"},"geometry":{"type":"MultiLineString","coordinates":[[[34.857786087294429,-16.224744366576598],[34.857546097334037,-16.224917652673614],[34.851540241255677,-16.228611727664582],[34.851380046949267,-16.228706499614859],[34.85088117430525,-16.228757539938023],[34.85075130212504,-16.228649736903964],[34.850332817630672,-16.228684512269982],[34.850043041528387,-16.228702601990182],[34.848655265946071,-16.2301619966663],[34.848688932775694,-16.23031732648148],[34.848545278369919,-16.230458639357209]]]}},
{"type":"Feature","properties":{"AREA":0.0,"PERIMETER":3443.594,"ID":"Object 1909","CAPTION":"L Canal","STYLE":24,"Canal_Type":"Main","Location":"Nchalo","layer":"nchalo main canals","path":"C:/Users/Hamza Nkhumbwa/Downloads/Updated Nchalo Estate Data/Updated Nchalo Estate Data/Canals & Dams/nchalo main canals.shp"},"geometry":{"type":"MultiLineString","coordinates":[[[34.895166487394661,-16.185285577309767],[34.89456728262163,-16.185654941061358],[34.888712530207179,-16.189274471845621],[34.888450699199417,-16.189470944535955],[34.882233417694962,-16.193287685214983],[34.872569936649626,-16.199221753075012],[34.869473334276741,-16.201105564202386],[34.869385778496664,-16.201142737436466],[34.869246737002037,-16.201046886800242],[34.868456889900607,-16.199852542145464]]]}},
{"type":"Feature","properties":{"AREA":0.0,"PERIMETER":3625.792,"ID":"Object 1910","CAPTION":"L Canal","STYLE":24,"Canal_Type":"Main","Location":"Nchalo","layer":"nchalo main canals","path":"C:/Users/Hamza Nkhumbwa/Downloads/Updated Nchalo Estate Data/Updated Nchalo Estate Data/Canals & Dams/nchalo main canals.shp"},"geometry":{"type":"MultiLineString","coordinates":[[[34.868341935073339,-16.199647270436564],[34.864532803382438,-16.193868404347565],[34.861616152305011,-16.189501348443684],[34.861539904251096,-16.189404941561037],[34.856380860922187,-16.181562723846753],[34.854861831092187,-16.181600246147678],[34.848522245907326,-16.181776786101299],[34.844693480130694,-16.181894971176519]]]}},
{"type":"Feature","properties":{"AREA":0.0,"PERIMETER":1562.097,"ID":"Object 1911","CAPTION":"L Canal","STYLE":24,"Canal_Type":"Main","Location":"Nchalo","layer":"nchalo main canals","path":"C:/Users/Hamza Nkhumbwa/Downloads/Updated Nchalo Estate Data/Updated Nchalo Estate Data/Canals & Dams/nchalo main canals.shp"},"geometry":{"type":"MultiLineString","coordinates":[[[34.844505253759287,-16.181908738151698],[34.838416398201595,-16.182046400143712],[34.82990531491788,-16.182326088876]]]}},
{"type":"Feature","properties":{"AREA":0.0,"PERIMETER":2416.376,"ID":"Object 1912","CAPTION":"L Canal","STYLE":24,"Canal_Type":"Main","Location":"Nchalo","layer":"nchalo main canals","path":"C:/Users/Hamza Nkhumbwa/Downloads/Updated Nchalo Estate Data/Updated Nchalo Estate Data/Canals & Dams/nchalo main canals.shp"},"geometry":{"type":"MultiLineString","coordinates":[[[34.829704306014833,-16.182315683823305],[34.823314368290227,-16.182491908707178],[34.815078971184001,-16.182720104752985],[34.80712008950384,-16.182982037592001]]]}},
{"type":"Feature","properties":{"AREA":0.0,"PERIMETER":1605.045,"ID":"Object 1913","CAPTION":"L Canal","STYLE":24,"Canal_Type":"Main","Location":"Nchalo","layer":"nchalo main canals","path":"C:/Users/Hamza Nkhumbwa/Downloads/Updated Nchalo Estate Data/Updated Nchalo Estate Data/Canals & Dams/nchalo main canals.shp"},"geometry":{"type":"MultiLineString","coordinates":[[[34.806906522511063,-16.182971717620731],[34.79654921393157,-16.18324148647126],[34.791904339944445,-16.183389887453512]]]}},
{"type":"Feature","properties":{"AREA":0.0,"PERIMETER":428.472,"ID":"Object 1908","CAPTION":"322 Canal","STYLE":24,"Canal_Type":"Main","Location":"Nchalo","layer":"nchalo main canals","path":"C:/Users/Hamza Nkhumbwa/Downloads/Updated Nchalo Estate Data/Updated Nchalo Estate Data/Canals & Dams/nchalo main canals.shp"},"geometry":{"type":"MultiLineString","coordinates":[[[34.898536825592146,-16.183192712716316],[34.895515848697009,-16.185051914804852],[34.895166874427936,-16.185285941446111]]]}},
{"type":"Feature","properties":{"AREA":0.0,"PERIMETER":3004.167,"ID":"Object 1907","CAPTION":"L Canal","STYLE":24,"Canal_Type":"Main","Location":"Nchalo","layer":"nchalo main canals","path":"C:/Users/Hamza Nkhumbwa/Downloads/Updated Nchalo Estate Data/Updated Nchalo Estate Data/Canals & Dams/nchalo main canals.shp"},"geometry":{"type":"MultiLineString","coordinates":[[[34.910279171583817,-16.208168587858335],[34.91016428710536,-16.207975477013552],[34.906850547023019,-16.202921095867119],[34.906761482806616,-16.202800555004934],[34.90137109780018,-16.194621967602483],[34.895281110899845,-16.185454433427193],[34.895171303554939,-16.185284470783554]]]}},
{"type":"Feature","properties":{"AREA":0.0,"PERIMETER":1251.151,"ID":"Object 13","CAPTION":"Object 13","STYLE":24,"Canal_Type":"Secondary","Location":"Alumenda","layer":"Alumenda Secondary Canals","path":"C:/Users/Hamza Nkhumbwa/Downloads/Updated Nchalo Estate Data/Updated Nchalo Estate Data/Canals & Dams/Alumenda Secondary Canals.shp"},"geometry":{"type":"MultiLineString","coordinates":[[[34.910223733852483,-16.38158067121077],[34.910830689671229,-16.382288108765682],[34.911374500327305,-16.383619948768164],[34.911773769569635,-16.38432926962173],[34.911851259597661,-16.385175192605615],[34.911999505172481,-16.386176429914926],[34.91247105987447,-16.387197006567725],[34.913263536052341,-16.387991865546994],[34.914311400113014,-16.388940353511753],[34.915893338224187,-16.390218163811493],[34.916245393143981,-16.390816505029033]]]}},
{"type":"Feature","properties":{"AREA":0.0,"PERIMETER":958.321,"ID":"Object 14","CAPTION":"Object 14","STYLE":24,"Canal_Type":"Secondary","Location":"Alumenda","layer":"Alumenda Secondary Canals","path":"C:/Users/Hamza Nkhumbwa/Downloads/Updated Nchalo Estate Data/Updated Nchalo Estate Data/Canals & Dams/Alumenda Secondary Canals.shp"},"geometry":{"type":"MultiLineString","coordinates":[[[34.89059498052665,-16.389979278060199],[34.890970255931038,-16.390599740267994],[34.891552810978013,-16.391173777210494],[34.89204090339507,-16.391525863494046],[34.892580750441283,-16.392456759051257],[34.893360219616532,-16.394298968711606],[34.89444749135972,-16.396940473979317],[34.894707182049686,-16.397539688684564]]]}},
{"type":"Feature","properties":{"AREA":0.0,"PERIMETER":1229.324,"ID":"Object 15","CAPTION":"Object 15","STYLE":24,"Canal_Type":"Secondary","Location":"Alumenda","layer":"Alumenda Secondary Canals","path":"C:/Users/Hamza Nkhumbwa/Downloads/Updated Nchalo Estate Data/Updated Nchalo Estate Data/Canals & Dams/Alumenda Secondary Canals.shp"},"geometry":{"type":"MultiLineString","coordinates":[[[34.901235959676143,-16.385315978292038],[34.901543319477263,-16.386070712138356],[34.901898999813945,-16.387047805932916],[34.902276032161645,-16.387846467464904],[34.902951136482166,-16.388441912998669],[34.903810870194782,-16.389035684436234],[34.904231040105216,-16.389522034229035],[34.905145170401241,-16.390961936461117],[34.906245677320683,-16.392578381133323],[34.906832399131865,-16.393575647266083],[34.907303516552645,-16.394551680365282]]]}},
{"type":"Feature","properties":{"AREA":0.0,"PERIMETER":1281.606,"ID":"Object 19","CAPTION":"Object 19","STYLE":24,"Canal_Type":"Secondary","Location":"Alumenda","layer":"Alumenda Secondary Canals","path":"C:/Users/Hamza Nkhumbwa/Downloads/Updated Nchalo Estate Data/Updated Nchalo Estate Data/Canals & Dams/Alumenda Secondary Canals.shp"},"geometry":{"type":"MultiLineString","coordinates":[[[34.910301064598073,-16.380042670259723],[34.90665122433893,-16.374951440071985],[34.905047695114504,-16.373807414794843],[34.90279351088757,-16.372201383303917],[34.902280217493207,-16.371626748471297]]]}},
{"type":"Feature","properties":{"AREA":0.0,"PERIMETER":704.263,"ID":"Object 20","CAPTION":"Object 20","STYLE":24,"Canal_Type":"Secondary","Location":"Alumenda","layer":"Alumenda Secondary Canals","path":"C:/Users/Hamza Nkhumbwa/Downloads/Updated Nchalo Estate Data/Updated Nchalo Estate Data/Canals & Dams/Alumenda Secondary Canals.shp"},"geometry":{"type":"MultiLineString","coordinates":[[[34.915201713733197,-16.371398170472542],[34.91932734943974,-16.375571435564005],[34.91992864350869,-16.375699627920309]]]}},
{"type":"Feature","properties":{"AREA":0.0,"PERIMETER":655.729,"ID":"6611","CAPTION":"6611","STYLE":7,"Canal_Type":"Secondary","Location":"Alumenda","layer":"Alumenda Secondary Canals","path":"C:/Users/Hamza Nkhumbwa/Downloads/Updated Nchalo Estate Data/Updated Nchalo Estate Data/Canals & Dams/Alumenda Secondary Canals.shp"},"geometry":{"type":"MultiLineString","coordinates":[[[34.864796613448902,-16.398812571158647],[34.865076528121811,-16.400163400838753],[34.865558561880498,-16.401705765815571],[34.866572825216387,-16.403050071156503],[34.866914603280797,-16.403884799239638],[34.86711795077489,-16.404205209385818]]]}},
{"type":"Feature","properties":{"AREA":0.0,"PERIMETER":2725.792,"ID":"3501","CAPTION":"3501","STYLE":5,"Canal_Type":"Secondary","Location":"Nchalo","layer":"nchalo secondary canals","path":"C:/Users/Hamza Nkhumbwa/Downloads/Updated Nchalo Estate Data/Updated Nchalo Estate Data/Canals & Dams/nchalo secondary canals.shp"},"geometry":{"type":"MultiLineString","coordinates":[[[34.861709194473654,-16.189609664083193],[34.861933038782745,-16.189440134194843],[34.86191522762374,-16.189390019330972],[34.863397787911516,-16.188455397751248],[34.863554001351076,-16.18847078541355],[34.868174196739702,-16.185581562892512],[34.86831228027485,-16.185513322034687],[34.87450147790652,-16.181688557348199],[34.874708120894795,-16.181535924231643],[34.877863227311153,-16.179614567171829],[34.877704486724866,-16.179331102357146],[34.874608772372682,-16.174683243491998],[34.874746529881449,-16.17458148843842]]]}},
{"type":"Feature","properties":{"AREA":0.0,"PERIMETER":1158.157,"ID":"330","CAPTION":"330","STYLE":5,"Canal_Type":"Secondary","Location":"Nchalo","layer":"nchalo secondary canals","path":"C:/Users/Hamza Nkhumbwa/Downloads/Updated Nchalo Estate Data/Updated Nchalo Estate Data/Canals & Dams/nchalo secondary canals.shp"},"geometry":{"type":"MultiLineString","coordinates":[[[34.877863068904205,-16.179597811685984],[34.878034554406796,-16.179395215643019],[34.886654681033832,-16.174141089790787],[34.886896141412322,-16.174004894391462],[34.886970904580949,-16.173961961162181]]]}},
{"type":"Feature","properties":{"AREA":0.0,"PERIMETER":1254.553,"ID":"3291","CAPTION":"3291","STYLE":7,"Canal_Type":"Secondary","Location":"Nchalo","layer":"nchalo secondary canals","path":"C:/Users/Hamza Nkhumbwa/Downloads/Updated Nchalo Estate Data/Updated Nchalo Estate Data/Canals & Dams/nchalo secondary canals.shp"},"geometry":{"type":"MultiLineString","coordinates":[[[34.86166128112378,-16.189495314170397],[34.861331828899985,-16.189698320102536],[34.857621394847833,-16.195974562677904],[34.857499764891934,-16.196255795743365],[34.857461344574759,-16.196576325657652],[34.858176314090329,-16.197730778340254],[34.856610673951124,-16.198624997890086]]]}},
{"type":"Feature","properties":{"AREA":0.0,"PERIMETER":3285.003,"ID":"Object 11","CAPTION":"Object 11","STYLE":24,"Canal_Type":"Tertiary","Location":"Alumenda","layer":"Alumenda Tertiary Canals","path":"C:/Users/Hamza Nkhumbwa/Downloads/Updated Nchalo Estate Data/Updated Nchalo Estate Data/Canals & Dams/Alumenda Tertiary Canals.shp"},"geometry":{"type":"MultiLineString","coordinates":[[[34.883339222848676,-16.393898825349567],[34.88099771910656,-16.388015591138561],[34.880577177754553,-16.387484632234251],[34.878996959430673,-16.386362476120794],[34.877929172184885,-16.385725892392841],[34.876766519406175,-16.384822788427183],[34.875284196164792,-16.384279008321524],[34.873569184280157,-16.383536768865756],[34.872573428218992,-16.383189154303938],[34.871318289331619,-16.382264559423241],[34.86831959469842,-16.38001863890495],[34.864040908858129,-16.374219179595595],[34.863947330759636,-16.374086327128161],[34.86500081996541,-16.373230346476582]]]}},
{"type":"Feature","properties":{"AREA":0.0,"PERIMETER":2273.463,"ID":"Object 16","CAPTION":"Object 16","STYLE":24,"Canal_Type":"Tertiary","Location":"Alumenda","layer":"Alumenda Tertiary Canals","path":"C:/Users/Hamza Nkhumbwa/Downloads/Updated Nchalo Estate Data/Updated Nchalo Estate Data/Canals & Dams/Alumenda Tertiary Canals.shp"},"geometry":{"type":"MultiLineString","coordinates":[[[34.88922776638838,-16.389412289092434],[34.88901490625868,-16.388879483602427],[34.889124069520754,-16.388232385606077],[34.889322752887502,-16.387294844477875],[34.889699185412297,-16.385642749288554],[34.889875860925713,-16.384816805245009],[34.889685224178869,-16.384194680582393],[34.889239016248979,-16.383396611925207],[34.888233584856501,-16.382046564288299],[34.886784122771971,-16.380121214438947],[34.885217162642377,-16.377974104660215],[34.882553882112468,-16.377017630439642],[34.881925029649238,-16.376421695420685],[34.881636563552412,-16.375221154345795],[34.880941484354153,-16.372531485270873]]]}},
{"type":"Feature","properties":{"AREA":0.0,"PERIMETER":1578.149,"ID":"Object 17","CAPTION":"Object 17","STYLE":24,"Canal_Type":"Tertiary","Location":"Alumenda","layer":"Alumenda Tertiary Canals","path":"C:/Users/Hamza Nkhumbwa/Downloads/Updated Nchalo Estate Data/Updated Nchalo Estate Data/Canals & Dams/Alumenda Tertiary Canals.shp"},"geometry":{"type":"MultiLineString","coordinates":[[[34.865895093901784,-16.372620854931917],[34.866077164568424,-16.372351878502538],[34.866211809764351,-16.371949641288168],[34.867517210593824,-16.370890894621411],[34.869876253790324,-16.36899841866396],[34.871962164030606,-16.367509391364759],[34.873039082865709,-16.366697728417318],[34.874540508457805,-16.366840326401071],[34.87594877937039,-16.366894623141373],[34.878260422522501,-16.367297334060215]]]}},
{"type":"Feature","properties":{"AREA":0.0,"PERIMETER":3370.731,"ID":"Object 18","CAPTION":"Object 18","STYLE":24,"Canal_Type":"Tertiary","Location":"Alumenda","layer":"Alumenda Tertiary Canals","path":"C:/Users/Hamza Nkhumbwa/Downloads/Updated Nchalo Estate Data/Updated Nchalo Estate Data/Canals & Dams/Alumenda Tertiary Canals.shp"},"geometry":{"type":"MultiLineString","coordinates":[[[34.90225953997998,-16.383769418680711],[34.901699194353597,-16.383106092121547],[34.900885000916745,-16.382445057730326],[34.899977855688775,-16.381718019768858],[34.899480064499933,-16.380363446741679],[34.89910133457537,-16.379386553965748],[34.898265598361952,-16.378881660135569],[34.89657817197547,-16.378607239946234],[34.895673213723036,-16.378102958778921],[34.894418877387807,-16.377267621093075],[34.893972670238156,-16.37646956235341],[34.893924795397801,-16.376291754195368],[34.901889219064415,-16.371763960707153],[34.902440022037425,-16.37144706578966],[34.908668277987438,-16.368783950688478],[34.911172896254477,-16.367669521150177]]]}},
{"type":"Feature","properties":{"AREA":0.0,"PERIMETER":1281.606,"ID":"Object 19","CAPTION":"Object 19","STYLE":24,"Canal_Type":"Tertiary","Location":"Alumenda","layer":"Alumenda Tertiary Canals","path":"C:/Users/Hamza Nkhumbwa/Downloads/Updated Nchalo Estate Data/Updated Nchalo Estate Data/Canals & Dams/Alumenda Tertiary Canals.shp"},"geometry":{"type":"MultiLineString","coordinates":[[[34.910301064598073,-16.380042670259723],[34.90665122433893,-16.374951440071985],[34.905047695114504,-16.373807414794843],[34.90279351088757,-16.372201383303917],[34.902280217493207,-16.371626748471297]]]}},
{"type":"Feature","properties":{"AREA":0.0,"PERIMETER":704.263,"ID":"Object 20","CAPTION":"Object 20","STYLE":24,"Canal_Type":"Tertiary","Location":"Alumenda","layer":"Alumenda Tertiary Canals","path":"C:/Users/Hamza Nkhumbwa/Downloads/Updated Nchalo Estate Data/Updated Nchalo Estate Data/Canals & Dams/Alumenda Tertiary Canals.shp"},"geometry":{"type":"MultiLineString","coordinates":[[[34.915201713733197,-16.371398170472542],[34.91932734943974,-16.375571435564005],[34.91992864350869,-16.375699627920309]]]}},
{"type":"Feature","properties":{"AREA":0.0,"PERIMETER":1272.832,"ID":"Object 21","CAPTION":"Object 21","STYLE":24,"Canal_Type":"Tertiary","Location":"Alumenda","layer":"Alumenda Tertiary Canals","path":"C:/Users/Hamza Nkhumbwa/Downloads/Updated Nchalo Estate Data/Updated Nchalo Estate Data/Canals & Dams/Alumenda Tertiary Canals.shp"},"geometry":{"type":"MultiLineString","coordinates":[[[34.915248083102995,-16.371420028149156],[34.913655059758462,-16.36662210755388],[34.911150494493555,-16.360629334909582]]]}},
{"type":"Feature","properties":{"AREA":0.0,"PERIMETER":5924.63,"ID":"Object 12","CAPTION":"Object 12","STYLE":24,"Canal_Type":"Tertiary","Location":"Alumenda","layer":"Alumenda Tertiary Canals","path":"C:/Users/Hamza Nkhumbwa/Downloads/Updated Nchalo Estate Data/Updated Nchalo Estate Data/Canals & Dams/Alumenda Tertiary Canals.shp"},"geometry":{"type":"MultiLineString","coordinates":[[[34.878756112370873,-16.399754915182797],[34.88079972508298,-16.398644917104342],[34.881716915096575,-16.398012868101929],[34.882090897706242,-16.39849967883962],[34.882315612071764,-16.399780133779153],[34.882441388285969,-16.400247296221327],[34.882805776466334,-16.400832671295063],[34.886195043530805,-16.399604864935135],[34.89011619014444,-16.398726718837054],[34.89476311737166,-16.397654646653546],[34.898761571954289,-16.396723308605676],[34.906362056879331,-16.395050373732204],[34.911373888752991,-16.393021973342879],[34.91613152724257,-16.390973500015786],[34.928819563216678,-16.38566636998118]]]}},
{"type":"Feature","properties":{"AREA":0.0,"PERIMETER":4346.111,"ID":"7514","CAPTION":"7514","STYLE":7,"Canal_Type":"Tertiary","Location":"Alumenda","layer":"Alumenda Tertiary Canals","path":"C:/Users/Hamza Nkhumbwa/Downloads/Updated Nchalo Estate Data/Updated Nchalo Estate Data/Canals & Dams/Alumenda Tertiary Canals.shp"},"geometry":{"type":"MultiLineString","coordinates":[[[34.864538335364799,-16.397883757476787],[34.864350809372446,-16.39757363349241],[34.864318636494957,-16.397425448628791],[34.864007790487157,-16.397086723885554],[34.863565573377471,-16.395873188581188],[34.863483307680816,-16.395309730690798],[34.863894443473598,-16.393257195371167],[34.864173515688627,-16.391873947076167],[34.864124693695338,-16.391592286377826],[34.863893438477518,-16.391534948412733],[34.862166153040718,-16.391045453994877],[34.8615631150086,-16.390709311759107],[34.85996777176323,-16.38953566483729],[34.859498646385198,-16.388723225106574],[34.85949413834183,-16.38824815873895],[34.859534781617093,-16.387668763605419],[34.8592205802059,-16.386973729218862],[34.8583260978859,-16.385096055746768],[34.857337673794653,-16.383041040949639],[34.856977915514449,-16.382405792076366],[34.856184886877038,-16.381492270893737],[34.855562856552687,-16.38077025018481],[34.855422903888915,-16.380608166380885],[34.855467775091945,-16.380474146639607],[34.857925854497473,-16.378566872440373],[34.858032659127716,-16.378476846697463],[34.857845727402875,-16.378226096832439],[34.856164628776462,-16.376102950334346],[34.856116386548564,-16.375880669227143],[34.856112797580209,-16.373876340967332],[34.856181886114264,-16.371425957949711],[34.856215798924339,-16.370133959870465],[34.856119880722218,-16.369748780597362],[34.855698363832673,-16.369084376500052],[34.855478303185762,-16.36858151406955],[34.855513906810621,-16.367467666005094],[34.855488983556633,-16.366458281118028],[34.855547264723384,-16.366116283611422],[34.855127302524266,-16.365615181942132],[34.855088689144559,-16.36478408283546]]]}},
{"type":"Feature","properties":{"AREA":0.0,"PERIMETER":399.638,"ID":"7005","CAPTION":"7005","STYLE":7,"Canal_Type":"Tertiary","Location":"Alumenda","layer":"Alumenda Tertiary Canals","path":"C:/Users/Hamza Nkhumbwa/Downloads/Updated Nchalo Estate Data/Updated Nchalo Estate Data/Canals & Dams/Alumenda Tertiary Canals.shp"},"geometry":{"type":"MultiLineString","coordinates":[[[34.913617909041854,-16.366539341599289],[34.915724770248971,-16.363555844791964]]]}},
{"type":"Feature","properties":{"AREA":0.0,"PERIMETER":2837.341,"ID":"290","CAPTION":"290","STYLE":0,"Canal_Type":"Tertiary","Location":"Nchalo","layer":"nchalo tertiary canals","path":"C:/Users/Hamza Nkhumbwa/Downloads/Updated Nchalo Estate Data/Updated Nchalo Estate Data/Canals & Dams/nchalo tertiary canals.shp"},"geometry":{"type":"MultiLineString","coordinates":[[[34.864579246987603,-16.253737241771585],[34.862632253762619,-16.250653893795356],[34.860686391885764,-16.247683943627553],[34.859220183708601,-16.24576846369564],[34.85322230452779,-16.236406084555636],[34.851870125928805,-16.234111431120688],[34.851224874590208,-16.232075273236234],[34.851143423770182,-16.231735685544088]]]}},
{"type":"Feature","properties":{"AREA":0.0,"PERIMETER":1325.91,"ID":"280 western b","CAPTION":"280 western b","STYLE":0,"Canal_Type":"Tertiary","Location":"Nchalo","layer":"nchalo tertiary canals","path":"C:/Users/Hamza Nkhumbwa/Downloads/Updated Nchalo Estate Data/Updated Nchalo Estate Data/Canals & Dams/nchalo tertiary canals.shp"},"geometry":{"type":"MultiLineString","coordinates":[[[34.851033711600557,-16.22928737364504],[34.850997656119425,-16.229214087326515],[34.851011062399522,-16.229192941530094],[34.851290470245068,-16.229103759250261],[34.851388115837935,-16.229071363789309],[34.851417894641955,-16.22905533222486],[34.851820997770311,-16.229682678500847],[34.852591081912564,-16.230856196695946],[34.853510032668687,-16.232236069694782],[34.85457849658976,-16.23389063277612],[34.855746007193417,-16.23565998006687],[34.857729891185556,-16.238755310171687]]]}},
{"type":"Feature","properties":{"AREA":0.0,"PERIMETER":1786.85,"ID":"280 mid","CAPTION":"280 mid","STYLE":0,"Canal_Type":"Tertiary","Location":"Nchalo","layer":"nchalo tertiary canals","path":"C:/Users/Hamza Nkhumbwa/Downloads/Updated Nchalo Estate Data/Updated Nchalo Estate Data/Canals & Dams/nchalo tertiary canals.shp"},"geometry":{"type":"MultiLineString","coordinates":[[[34.851403032838974,-16.229081094544245],[34.851644337113584,-16.22900705073506],[34.851792909567216,-16.228969784964995],[34.856771165601295,-16.229825485884778],[34.860053074175177,-16.230426183529996],[34.86428265336918,-16.236773472856402],[34.86426488620824,-16.236863550504811]]]}},
{"type":"Feature","properties":{"AREA":0.0,"PERIMETER":686.344,"ID":"280 north","CAPTION":"280 north","STYLE":0,"Canal_Type":"Tertiary","Location":"Nchalo","layer":"nchalo tertiary canals","path":"C:/Users/Hamza Nkhumbwa/Downloads/Updated Nchalo Estate Data/Updated Nchalo Estate Data/Canals & Dams/nchalo tertiary canals.shp"},"geometry":{"type":"MultiLineString","coordinates":[[[34.851232988215507,-16.22881281251026],[34.851326392462738,-16.228847966187555],[34.851696646156292,-16.228628921660992],[34.856490409320834,-16.225691539573816],[34.856677384725394,-16.225779825179899]]]}},
{"type":"Feature","properties":{"AREA":0.0,"PERIMETER":457.781,"ID":"142 south","CAPTION":"142 south","STYLE":7,"Canal_Type":"Tertiary","Location":"Nchalo","layer":"nchalo tertiary canals","path":"C:/Users/Hamza Nkhumbwa/Downloads/Updated Nchalo Estate Data/Updated Nchalo Estate Data/Canals & Dams/nchalo tertiary canals.shp"},"geometry":{"type":"MultiLineString","coordinates":[[[34.908697523295622,-16.273859949766333],[34.906514532048909,-16.27055268992785],[34.90647166220139,-16.270342676709344]]]}},
{"type":"Feature","properties":{"AREA":0.0,"PERIMETER":537.838,"ID":"142 east","CAPTION":"142 east","STYLE":7,"Canal_Type":"Tertiary","Location":"Nchalo","layer":"nchalo tertiary canals","path":"C:/Users/Hamza Nkhumbwa/Downloads/Updated Nchalo Estate Data/Updated Nchalo Estate Data/Canals & Dams/nchalo tertiary canals.shp"},"geometry":{"type":"MultiLineString","coordinates":[[[34.906771553141844,-16.268972379183598],[34.90664726102009,-16.26878939937475],[34.907283503988381,-16.268415468203312],[34.911279273400666,-16.267721928313406]]]}},
{"type":"Feature","properties":{"AREA":0.0,"PERIMETER":1344.102,"ID":"1420","CAPTION":"1420","STYLE":7,"Canal_Type":"Tertiary","Location":"Nchalo","layer":"nchalo tertiary canals","path":"C:/Users/Hamza Nkhumbwa/Downloads/Updated Nchalo Estate Data/Updated Nchalo Estate Data/Canals & Dams/nchalo tertiary canals.shp"},"geometry":{"type":"MultiLineString","coordinates":[[[34.906624418023654,-16.260781275160184],[34.905000589559442,-16.261795288551916],[34.903335779840816,-16.262796509389442],[34.902036968862824,-16.263636630979605],[34.901885206738541,-16.263427594323527],[34.899329619038305,-16.259571280333272],[34.8990000206202,-16.259271785703678],[34.898102221943091,-16.25792538160956]]]}},
{"type":"Feature","properties":{"AREA":0.0,"PERIMETER":997.532,"ID":"5921","CAPTION":"5921","STYLE":7,"Canal_Type":"Tertiary","Location":"Nchalo","layer":"nchalo tertiary canals","path":"C:/Users/Hamza Nkhumbwa/Downloads/Updated Nchalo Estate Data/Updated Nchalo Estate Data/Canals & Dams/nchalo tertiary canals.shp"},"geometry":{"type":"MultiLineString","coordinates":[[[34.787677452944891,-16.176356401353342],[34.787803398223318,-16.176330956562843],[34.78762282323116,-16.17308907850969],[34.787848819047845,-16.172965247577817],[34.793423653599284,-16.172747629321147]]]}},
{"type":"Feature","properties":{"AREA":0.0,"PERIMETER":659.003,"ID":"5914","CAPTION":"5914","STYLE":7,"Canal_Type":"Tertiary","Location":"Nchalo","layer":"nchalo tertiary canals","path":"C:/Users/Hamza Nkhumbwa/Downloads/Updated Nchalo Estate Data/Updated Nchalo Estate Data/Canals & Dams/nchalo tertiary canals.shp"},"geometry":{"type":"MultiLineString","coordinates":[[[34.787778384706471,-16.176355553207472],[34.787805592465027,-16.176574802429183],[34.788007675631398,-16.176597490474354],[34.793734228408766,-16.176402965966851]]]}},
{"type":"Feature","properties":{"AREA":0.0,"PERIMETER":431.793,"ID":"5910","CAPTION":"5910","STYLE":7,"Canal_Type":"Tertiary","Location":"Nchalo","layer":"nchalo tertiary canals","path":"C:/Users/Hamza Nkhumbwa/Downloads/Updated Nchalo Estate Data/Updated Nchalo Estate Data/Canals & Dams/nchalo tertiary canals.shp"},"geometry":{"type":"MultiLineString","coordinates":[[[34.788007236730181,-16.176548721348418],[34.788067587057064,-16.180450041173223]]]}},
{"type":"Feature","properties":{"AREA":0.0,"PERIMETER":1728.52,"ID":"5411","CAPTION":"5411","STYLE":7,"Canal_Type":"Tertiary","Location":"Nchalo","layer":"nchalo tertiary canals","path":"C:/Users/Hamza Nkhumbwa/Downloads/Updated Nchalo Estate Data/Updated Nchalo Estate Data/Canals & Dams/nchalo tertiary canals.shp"},"geometry":{"type":"MultiLineString","coordinates":[[[34.835282813144062,-16.191411692137631],[34.835483108177861,-16.19123926175914],[34.835481078772808,-16.191019806604686],[34.834935608634368,-16.189341891646208],[34.835112020707356,-16.189315983017643],[34.843210504911646,-16.18907522076103],[34.843438288198996,-16.189146402983638],[34.8449478581053,-16.194083612850399]]]}},
{"type":"Feature","properties":{"AREA":0.0,"PERIMETER":1243.84,"ID":"5420","CAPTION":"5420","STYLE":7,"Canal_Type":"Tertiary","Location":"Nchalo","layer":"nchalo tertiary canals","path":"C:/Users/Hamza Nkhumbwa/Downloads/Updated Nchalo Estate Data/Updated Nchalo Estate Data/Canals & Dams/nchalo tertiary canals.shp"},"geometry":{"type":"MultiLineString","coordinates":[[[34.834986076490779,-16.189341456033162],[34.834913972390027,-16.187001035534585],[34.838265300763524,-16.186459984211254],[34.839046636098473,-16.186355684391952],[34.8399023149315,-16.186104423507544],[34.840449765974192,-16.185270568266407],[34.840544822768656,-16.184635714593242],[34.842083824106865,-16.184598002333253],[34.841798569074761,-16.183771356342668]]]}},
{"type":"Feature","properties":{"AREA":0.0,"PERIMETER":299.891,"ID":"5423","CAPTION":"5423","STYLE":7,"Canal_Type":"Tertiary","Location":"Nchalo","layer":"nchalo tertiary canals","path":"C:/Users/Hamza Nkhumbwa/Downloads/Updated Nchalo Estate Data/Updated Nchalo Estate Data/Canals & Dams/nchalo tertiary canals.shp"},"geometry":{"type":"MultiLineString","coordinates":[[[34.842084276515116,-16.1846467699554],[34.842865489276534,-16.187249279059625]]]}},
{"type":"Feature","properties":{"AREA":0.0,"PERIMETER":564.335,"ID":"4402","CAPTION":"4402","STYLE":7,"Canal_Type":"Tertiary","Location":"Nchalo","layer":"nchalo tertiary canals","path":"C:/Users/Hamza Nkhumbwa/Downloads/Updated Nchalo Estate Data/Updated Nchalo Estate Data/Canals & Dams/nchalo tertiary canals.shp"},"geometry":{"type":"MultiLineString","coordinates":[[[34.834169592698409,-16.196566717174573],[34.839442087016458,-16.196350443293927]]]}},
{"type":"Feature","properties":{"AREA":0.0,"PERIMETER":637.755,"ID":"4407","CAPTION":"4407","STYLE":7,"Canal_Type":"Tertiary","Location":"Nchalo","layer":"nchalo tertiary canals","path":"C:/Users/Hamza Nkhumbwa/Downloads/Updated Nchalo Estate Data/Updated Nchalo Estate Data/Canals & Dams/nchalo tertiary canals.shp"},"geometry":{"type":"MultiLineString","coordinates":[[[34.833841314155706,-16.196545164481755],[34.833919723281333,-16.19683711811906],[34.834138734403211,-16.198688552676444],[34.834217596049598,-16.199029273857381],[34.834282947345159,-16.200638175577016],[34.834424233381682,-16.202270807057417]]]}},
{"type":"Feature","properties":{"AREA":0.0,"PERIMETER":816.515,"ID":"5922","CAPTION":"5922","STYLE":0,"Canal_Type":"Tertiary","Location":"Nchalo","layer":"nchalo tertiary canals","path":"C:/Users/Hamza Nkhumbwa/Downloads/Updated Nchalo Estate Data/Updated Nchalo Estate Data/Canals & Dams/nchalo tertiary canals.shp"},"geometry":{"type":"MultiLineString","coordinates":[[[34.788794437282867,-16.197233993590782],[34.789008667285486,-16.197639140580531],[34.789031907616213,-16.200216297697352],[34.789191859212572,-16.2023853525086],[34.789141248262517,-16.204556180052762]]]}},
{"type":"Feature","properties":{"AREA":0.0,"PERIMETER":1682.067,"ID":"5927","CAPTION":"5927","STYLE":7,"Canal_Type":"Tertiary","Location":"Nchalo","layer":"nchalo tertiary canals","path":"C:/Users/Hamza Nkhumbwa/Downloads/Updated Nchalo Estate Data/Updated Nchalo Estate Data/Canals & Dams/nchalo tertiary canals.shp"},"geometry":{"type":"MultiLineString","coordinates":[[[34.788723638902482,-16.197166764428314],[34.796302583164582,-16.196967184040737],[34.796236080490964,-16.197374695276761],[34.803955985518215,-16.197241474561384]]]}},
{"type":"Feature","properties":{"AREA":0.0,"PERIMETER":1013.267,"ID":"5803","CAPTION":"5803","STYLE":7,"Canal_Type":"Tertiary","Location":"Nchalo","layer":"nchalo tertiary canals","path":"C:/Users/Hamza Nkhumbwa/Downloads/Updated Nchalo Estate Data/Updated Nchalo Estate Data/Canals & Dams/nchalo tertiary canals.shp"},"geometry":{"type":"MultiLineString","coordinates":[[[34.788202307669202,-16.186047829067789],[34.797676989778751,-16.185967937108828]]]}},
{"type":"Feature","properties":{"AREA":0.0,"PERIMETER":1178.491,"ID":"5712","CAPTION":"5712","STYLE":7,"Canal_Type":"Tertiary","Location":"Nchalo","layer":"nchalo tertiary canals","path":"C:/Users/Hamza Nkhumbwa/Downloads/Updated Nchalo Estate Data/Updated Nchalo Estate Data/Canals & Dams/nchalo tertiary canals.shp"},"geometry":{"type":"MultiLineString","coordinates":[[[34.79976587040445,-16.184118996590538],[34.799769558457278,-16.184525914313522],[34.800002780456694,-16.19476548199167]]]}},
{"type":"Feature","properties":{"AREA":0.0,"PERIMETER":1252.049,"ID":"5706","CAPTION":"5706","STYLE":7,"Canal_Type":"Tertiary","Location":"Nchalo","layer":"nchalo tertiary canals","path":"C:/Users/Hamza Nkhumbwa/Downloads/Updated Nchalo Estate Data/Updated Nchalo Estate Data/Canals & Dams/nchalo tertiary canals.shp"},"geometry":{"type":"MultiLineString","coordinates":[[[34.800121083444253,-16.184590763618942],[34.800122927878029,-16.184794222433609],[34.803667764082128,-16.188698015901743],[34.803685018346144,-16.19059696011357],[34.807558723443435,-16.192056196645193]]]}},
{"type":"Feature","properties":{"AREA":0.0,"PERIMETER":1922.519,"ID":"5611","CAPTION":"5611","STYLE":7,"Canal_Type":"Tertiary","Location":"Nchalo","layer":"nchalo tertiary canals","path":"C:/Users/Hamza Nkhumbwa/Downloads/Updated Nchalo Estate Data/Updated Nchalo Estate Data/Canals & Dams/nchalo tertiary canals.shp"},"geometry":{"type":"MultiLineString","coordinates":[[[34.806777258213003,-16.183313470305546],[34.807198346214342,-16.183309892319045],[34.807988247464287,-16.18527009042613],[34.808909262972307,-16.186211800636034],[34.811049375874219,-16.189991751591652],[34.813190195463505,-16.193839490508456],[34.813146037214111,-16.196688489105508],[34.815250369644396,-16.196534875489014]]]}},
{"type":"Feature","properties":{"AREA":0.0,"PERIMETER":798.493,"ID":"5604","CAPTION":"5604","STYLE":7,"Canal_Type":"Tertiary","Location":"Nchalo","layer":"nchalo tertiary canals","path":"C:/Users/Hamza Nkhumbwa/Downloads/Updated Nchalo Estate Data/Updated Nchalo Estate Data/Canals & Dams/nchalo tertiary canals.shp"},"geometry":{"type":"MultiLineString","coordinates":[[[34.806987802226892,-16.183311681416388],[34.807337474421907,-16.183173060807629],[34.814425767842465,-16.183112702235348]]]}},
{"type":"Feature","properties":{"AREA":0.0,"PERIMETER":608.006,"ID":"5608","CAPTION":"5608","STYLE":7,"Canal_Type":"Tertiary","Location":"Nchalo","layer":"nchalo tertiary canals","path":"C:/Users/Hamza Nkhumbwa/Downloads/Updated Nchalo Estate Data/Updated Nchalo Estate Data/Canals & Dams/nchalo tertiary canals.shp"},"geometry":{"type":"MultiLineString","coordinates":[[[34.810976717430378,-16.189721072878285],[34.816662187364216,-16.189740387826767]]]}},
{"type":"Feature","properties":{"AREA":0.0,"PERIMETER":420.385,"ID":"5612","CAPTION":"5612","STYLE":7,"Canal_Type":"Tertiary","Location":"Nchalo","layer":"nchalo tertiary canals","path":"C:/Users/Hamza Nkhumbwa/Downloads/Updated Nchalo Estate Data/Updated Nchalo Estate Data/Canals & Dams/nchalo tertiary canals.shp"},"geometry":{"type":"MultiLineString","coordinates":[[[34.813190815106815,-16.193907309518231],[34.817121782348615,-16.193941561694519]]]}},
{"type":"Feature","properties":{"AREA":0.0,"PERIMETER":1521.715,"ID":"4410","CAPTION":"4410","STYLE":7,"Canal_Type":"Tertiary","Location":"Nchalo","layer":"nchalo tertiary canals","path":"C:/Users/Hamza Nkhumbwa/Downloads/Updated Nchalo Estate Data/Updated Nchalo Estate Data/Canals & Dams/nchalo tertiary canals.shp"},"geometry":{"type":"MultiLineString","coordinates":[[[34.834102004522485,-16.193320942275665],[34.833708475832339,-16.196308579465207],[34.833852606450797,-16.196714277648194],[34.830343977383059,-16.196812351166358],[34.830407806471158,-16.203729823771756]]]}},
{"type":"Feature","properties":{"AREA":0.0,"PERIMETER":685.677,"ID":"5037","CAPTION":"5037","STYLE":7,"Canal_Type":"Tertiary","Location":"Nchalo","layer":"nchalo tertiary canals","path":"C:/Users/Hamza Nkhumbwa/Downloads/Updated Nchalo Estate Data/Updated Nchalo Estate Data/Canals & Dams/nchalo tertiary canals.shp"},"geometry":{"type":"MultiLineString","coordinates":[[[34.852870640441758,-16.188817475959322],[34.853431458955711,-16.188744764349337],[34.853432092136309,-16.188812581858176],[34.856005549915167,-16.193809030303662]]]}},
{"type":"Feature","properties":{"AREA":0.0,"PERIMETER":197.338,"ID":"5024","CAPTION":"5024","STYLE":7,"Canal_Type":"Tertiary","Location":"Nchalo","layer":"nchalo tertiary canals","path":"C:/Users/Hamza Nkhumbwa/Downloads/Updated Nchalo Estate Data/Updated Nchalo Estate Data/Canals & Dams/nchalo tertiary canals.shp"},"geometry":{"type":"MultiLineString","coordinates":[[[34.852947081826379,-16.181966676173726],[34.85315888457982,-16.1821004769319],[34.85343706930346,-16.181826760257984],[34.854630744856571,-16.181884177287188]]]}},
{"type":"Feature","properties":{"AREA":0.0,"PERIMETER":360.273,"ID":"5021","CAPTION":"5021","STYLE":7,"Canal_Type":"Tertiary","Location":"Nchalo","layer":"nchalo tertiary canals","path":"C:/Users/Hamza Nkhumbwa/Downloads/Updated Nchalo Estate Data/Updated Nchalo Estate Data/Canals & Dams/nchalo tertiary canals.shp"},"geometry":{"type":"MultiLineString","coordinates":[[[34.853230962191446,-16.182303318146108],[34.849862359154635,-16.182332645891837]]]}},
{"type":"Feature","properties":{"AREA":0.0,"PERIMETER":592.949,"ID":"5032","CAPTION":"5032","STYLE":7,"Canal_Type":"Tertiary","Location":"Nchalo","layer":"nchalo tertiary canals","path":"C:/Users/Hamza Nkhumbwa/Downloads/Updated Nchalo Estate Data/Updated Nchalo Estate Data/Canals & Dams/nchalo tertiary canals.shp"},"geometry":{"type":"MultiLineString","coordinates":[[[34.849711207254238,-16.188709342313167],[34.849761137334674,-16.194066938675689]]]}},
{"type":"Feature","properties":{"AREA":0.0,"PERIMETER":2037.379,"ID":"3910","CAPTION":"3910","STYLE":7,"Canal_Type":"Tertiary","Location":"Nchalo","layer":"nchalo tertiary canals","path":"C:/Users/Hamza Nkhumbwa/Downloads/Updated Nchalo Estate Data/Updated Nchalo Estate Data/Canals & Dams/nchalo tertiary canals.shp"},"geometry":{"type":"MultiLineString","coordinates":[[[34.852086143771743,-16.202524572803291],[34.85293408207977,-16.203127585527248],[34.85949345676952,-16.19900090061228],[34.865147814388614,-16.195695853975003],[34.867070207257456,-16.198595343854677]]]}},
{"type":"Feature","properties":{"AREA":0.0,"PERIMETER":428.876,"ID":"3907","CAPTION":"3907","STYLE":7,"Canal_Type":"Tertiary","Location":"Nchalo","layer":"nchalo tertiary canals","path":"C:/Users/Hamza Nkhumbwa/Downloads/Updated Nchalo Estate Data/Updated Nchalo Estate Data/Canals & Dams/nchalo tertiary canals.shp"},"geometry":{"type":"MultiLineString","coordinates":[[[34.859283537933131,-16.199070560487417],[34.861489814789067,-16.202306734089479]]]}},
{"type":"Feature","properties":{"AREA":0.0,"PERIMETER":556.13,"ID":"3905","CAPTION":"3905","STYLE":7,"Canal_Type":"Tertiary","Location":"Nchalo","layer":"nchalo tertiary canals","path":"C:/Users/Hamza Nkhumbwa/Downloads/Updated Nchalo Estate Data/Updated Nchalo Estate Data/Canals & Dams/nchalo tertiary canals.shp"},"geometry":{"type":"MultiLineString","coordinates":[[[34.852933448478176,-16.203059768021422],[34.855710701623977,-16.207308367620783]]]}},
{"type":"Feature","properties":{"AREA":0.0,"PERIMETER":729.267,"ID":"3902","CAPTION":"3902","STYLE":7,"Canal_Type":"Tertiary","Location":"Nchalo","layer":"nchalo tertiary canals","path":"C:/Users/Hamza Nkhumbwa/Downloads/Updated Nchalo Estate Data/Updated Nchalo Estate Data/Canals & Dams/nchalo tertiary canals.shp"},"geometry":{"type":"MultiLineString","coordinates":[[[34.850342240191452,-16.203692762235011],[34.850366919347444,-16.206337647322265],[34.850724188082502,-16.207012764938952],[34.850799440425618,-16.207554693582701],[34.850670458674905,-16.208776632496601],[34.851523489279039,-16.209922188083628]]]}},
{"type":"Feature","properties":{"AREA":0.0,"PERIMETER":326.993,"ID":"3703","CAPTION":"3703","STYLE":7,"Canal_Type":"Tertiary","Location":"Nchalo","layer":"nchalo tertiary canals","path":"C:/Users/Hamza Nkhumbwa/Downloads/Updated Nchalo Estate Data/Updated Nchalo Estate Data/Canals & Dams/nchalo tertiary canals.shp"},"geometry":{"type":"MultiLineString","coordinates":[[[34.858579802267627,-16.183884390928355],[34.860217437724103,-16.186379517706303]]]}},
{"type":"Feature","properties":{"AREA":0.0,"PERIMETER":1030.495,"ID":"3612","CAPTION":"3612","STYLE":7,"Canal_Type":"Tertiary","Location":"Nchalo","layer":"nchalo tertiary canals","path":"C:/Users/Hamza Nkhumbwa/Downloads/Updated Nchalo Estate Data/Updated Nchalo Estate Data/Canals & Dams/nchalo tertiary canals.shp"},"geometry":{"type":"MultiLineString","coordinates":[[[34.863609007231815,-16.188791436805275],[34.871631858994341,-16.183634269736054]]]}},
{"type":"Feature","properties":{"AREA":0.0,"PERIMETER":1057.263,"ID":"3617","CAPTION":"3617","STYLE":7,"Canal_Type":"Tertiary","Location":"Nchalo","layer":"nchalo tertiary canals","path":"C:/Users/Hamza Nkhumbwa/Downloads/Updated Nchalo Estate Data/Updated Nchalo Estate Data/Canals & Dams/nchalo tertiary canals.shp"},"geometry":{"type":"MultiLineString","coordinates":[[[34.868700936533877,-16.185423433127035],[34.875720807352337,-16.185565090754338],[34.877217016763197,-16.187925667149827]]]}},
{"type":"Feature","properties":{"AREA":0.0,"PERIMETER":1778.038,"ID":"3621","CAPTION":"3621","STYLE":7,"Canal_Type":"Tertiary","Location":"Nchalo","layer":"nchalo tertiary canals","path":"C:/Users/Hamza Nkhumbwa/Downloads/Updated Nchalo Estate Data/Updated Nchalo Estate Data/Canals & Dams/nchalo tertiary canals.shp"},"geometry":{"type":"MultiLineString","coordinates":[[[34.862852289982897,-16.190425815072508],[34.866129744085889,-16.195619411001616],[34.866125917331352,-16.195212508939697],[34.874429017737526,-16.189984937573435]]]}},
{"type":"Feature","properties":{"AREA":0.0,"PERIMETER":1066.124,"ID":"3507","CAPTION":"3507","STYLE":7,"Canal_Type":"Tertiary","Location":"Nchalo","layer":"nchalo tertiary canals","path":"C:/Users/Hamza Nkhumbwa/Downloads/Updated Nchalo Estate Data/Updated Nchalo Estate Data/Canals & Dams/nchalo tertiary canals.shp"},"geometry":{"type":"MultiLineString","coordinates":[[[34.875462627768393,-16.173088046187996],[34.883834754173726,-16.167859602028056]]]}},
{"type":"Feature","properties":{"AREA":0.0,"PERIMETER":397.801,"ID":"3502","CAPTION":"3502","STYLE":7,"Canal_Type":"Tertiary","Location":"Nchalo","layer":"nchalo tertiary canals","path":"C:/Users/Hamza Nkhumbwa/Downloads/Updated Nchalo Estate Data/Updated Nchalo Estate Data/Canals & Dams/nchalo tertiary canals.shp"},"geometry":{"type":"MultiLineString","coordinates":[[[34.874776873706693,-16.174789650890038],[34.876770618576955,-16.177824079817608]]]}},
{"type":"Feature","properties":{"AREA":0.0,"PERIMETER":991.318,"ID":"3526","CAPTION":"3526","STYLE":7,"Canal_Type":"Tertiary","Location":"Nchalo","layer":"nchalo tertiary canals","path":"C:/Users/Hamza Nkhumbwa/Downloads/Updated Nchalo Estate Data/Updated Nchalo Estate Data/Canals & Dams/nchalo tertiary canals.shp"},"geometry":{"type":"MultiLineString","coordinates":[[[34.879546007981517,-16.181868911137311],[34.884530546391957,-16.189420872125943]]]}},
{"type":"Feature","properties":{"AREA":0.0,"PERIMETER":1012.551,"ID":"3309","CAPTION":"3309","STYLE":7,"Canal_Type":"Tertiary","Location":"Nchalo","layer":"nchalo tertiary canals","path":"C:/Users/Hamza Nkhumbwa/Downloads/Updated Nchalo Estate Data/Updated Nchalo Estate Data/Canals & Dams/nchalo tertiary canals.shp"},"geometry":{"type":"MultiLineString","coordinates":[[[34.889110050553668,-16.176494059421223],[34.889599990084854,-16.176354064180437],[34.894441777990266,-16.183635753747399]]]}},
{"type":"Feature","properties":{"AREA":0.0,"PERIMETER":628.924,"ID":"3304","CAPTION":"3304","STYLE":7,"Canal_Type":"Tertiary","Location":"Nchalo","layer":"nchalo tertiary canals","path":"C:/Users/Hamza Nkhumbwa/Downloads/Updated Nchalo Estate Data/Updated Nchalo Estate Data/Canals & Dams/nchalo tertiary canals.shp"},"geometry":{"type":"MultiLineString","coordinates":[[[34.887470884199374,-16.173863549993499],[34.891377431513732,-16.171387269767134],[34.891725718229765,-16.171112886199797],[34.892353406678907,-16.170700373885378]]]}},
{"type":"Feature","properties":{"AREA":0.0,"PERIMETER":664.336,"ID":"3311","CAPTION":"3311","STYLE":7,"Canal_Type":"Tertiary","Location":"Nchalo","layer":"nchalo tertiary canals","path":"C:/Users/Hamza Nkhumbwa/Downloads/Updated Nchalo Estate Data/Updated Nchalo Estate Data/Canals & Dams/nchalo tertiary canals.shp"},"geometry":{"type":"MultiLineString","coordinates":[[[34.895856991288568,-16.184843931926245],[34.896209825810494,-16.185044250841969],[34.90109373921635,-16.182016494238606]]]}},
{"type":"Feature","properties":{"AREA":0.0,"PERIMETER":767.398,"ID":"3313","CAPTION":"3313","STYLE":7,"Canal_Type":"Tertiary","Location":"Nchalo","layer":"nchalo tertiary canals","path":"C:/Users/Hamza Nkhumbwa/Downloads/Updated Nchalo Estate Data/Updated Nchalo Estate Data/Canals & Dams/nchalo tertiary canals.shp"},"geometry":{"type":"MultiLineString","coordinates":[[[34.896068821439258,-16.184977686516049],[34.896495073530204,-16.185516458582519],[34.896562661009369,-16.185244569023464],[34.902659076914162,-16.184240604327876]]]}},
{"type":"Feature","properties":{"AREA":0.0,"PERIMETER":653.047,"ID":"3315","CAPTION":"3315","STYLE":7,"Canal_Type":"Tertiary","Location":"Nchalo","layer":"nchalo tertiary canals","path":"C:/Users/Hamza Nkhumbwa/Downloads/Updated Nchalo Estate Data/Updated Nchalo Estate Data/Canals & Dams/nchalo tertiary canals.shp"},"geometry":{"type":"MultiLineString","coordinates":[[[34.900855185808041,-16.193751747930257],[34.901694761475298,-16.193472951386905],[34.899916860349364,-16.191047277418146],[34.901731152751502,-16.18994590990491]]]}},
{"type":"Feature","properties":{"AREA":0.0,"PERIMETER":444.613,"ID":"3411","CAPTION":"3411","STYLE":7,"Canal_Type":"Tertiary","Location":"Nchalo","layer":"nchalo tertiary canals","path":"C:/Users/Hamza Nkhumbwa/Downloads/Updated Nchalo Estate Data/Updated Nchalo Estate Data/Canals & Dams/nchalo tertiary canals.shp"},"geometry":{"type":"MultiLineString","coordinates":[[[34.890420523752361,-16.188826001808611],[34.890557654406017,-16.18848567310603],[34.893767810398671,-16.186558092694352]]]}},
{"type":"Feature","properties":{"AREA":0.0,"PERIMETER":850.124,"ID":"3414","CAPTION":"3414","STYLE":7,"Canal_Type":"Tertiary","Location":"Nchalo","layer":"nchalo tertiary canals","path":"C:/Users/Hamza Nkhumbwa/Downloads/Updated Nchalo Estate Data/Updated Nchalo Estate Data/Canals & Dams/nchalo tertiary canals.shp"},"geometry":{"type":"MultiLineString","coordinates":[[[34.889735509950121,-16.190595460672995],[34.890805662391116,-16.192417133655784],[34.895619013533867,-16.189322285127215]]]}},
{"type":"Feature","properties":{"AREA":0.0,"PERIMETER":1320.977,"ID":"3420","CAPTION":"3420","STYLE":7,"Canal_Type":"Tertiary","Location":"Nchalo","layer":"nchalo tertiary canals","path":"C:/Users/Hamza Nkhumbwa/Downloads/Updated Nchalo Estate Data/Updated Nchalo Estate Data/Canals & Dams/nchalo tertiary canals.shp"},"geometry":{"type":"MultiLineString","coordinates":[[[34.890875843610701,-16.192416509320545],[34.894792144626052,-16.198282118405903],[34.897932866291228,-16.196422905760798],[34.898646371013399,-16.197637319509564]]]}},
{"type":"Feature","properties":{"AREA":0.0,"PERIMETER":468.615,"ID":"3528","CAPTION":"3528","STYLE":7,"Canal_Type":"Tertiary","Location":"Nchalo","layer":"nchalo tertiary canals","path":"C:/Users/Hamza Nkhumbwa/Downloads/Updated Nchalo Estate Data/Updated Nchalo Estate Data/Canals & Dams/nchalo tertiary canals.shp"},"geometry":{"type":"MultiLineString","coordinates":[[[34.883859637885223,-16.192682277338552],[34.88462712731755,-16.192200719297688],[34.887557974587232,-16.190411341941182]]]}},
{"type":"Feature","properties":{"AREA":0.0,"PERIMETER":1227.918,"ID":"3540","CAPTION":"3540","STYLE":7,"Canal_Type":"Tertiary","Location":"Nchalo","layer":"nchalo tertiary canals","path":"C:/Users/Hamza Nkhumbwa/Downloads/Updated Nchalo Estate Data/Updated Nchalo Estate Data/Canals & Dams/nchalo tertiary canals.shp"},"geometry":{"type":"MultiLineString","coordinates":[[[34.883387031419943,-16.194653305359392],[34.886448068846867,-16.199170226221106],[34.886867236402743,-16.19896303840877],[34.892192132641952,-16.19796617945817]]]}},
{"type":"Feature","properties":{"AREA":0.0,"PERIMETER":1828.19,"ID":"3625","CAPTION":"3625","STYLE":7,"Canal_Type":"Tertiary","Location":"Nchalo","layer":"nchalo tertiary canals","path":"C:/Users/Hamza Nkhumbwa/Downloads/Updated Nchalo Estate Data/Updated Nchalo Estate Data/Canals & Dams/nchalo tertiary canals.shp"},"geometry":{"type":"MultiLineString","coordinates":[[[34.875678207559574,-16.203334911377077],[34.879958243419487,-16.203161431535165],[34.880096685669869,-16.202956739914143],[34.876252788194769,-16.1972936562962],[34.880928077435726,-16.194403793969411]]]}},
{"type":"Feature","properties":{"AREA":0.0,"PERIMETER":977.374,"ID":"3632","CAPTION":"3632","STYLE":7,"Canal_Type":"Tertiary","Location":"Nchalo","layer":"nchalo tertiary canals","path":"C:/Users/Hamza Nkhumbwa/Downloads/Updated Nchalo Estate Data/Updated Nchalo Estate Data/Canals & Dams/nchalo tertiary canals.shp"},"geometry":{"type":"MultiLineString","coordinates":[[[34.880098614325519,-16.203160189202002],[34.881881566150334,-16.206128571393489],[34.886556308048426,-16.203170757938619]]]}},
{"type":"Feature","properties":{"AREA":0.0,"PERIMETER":378.253,"ID":"3722","CAPTION":"3722","STYLE":7,"Canal_Type":"Tertiary","Location":"Nchalo","layer":"nchalo tertiary canals","path":"C:/Users/Hamza Nkhumbwa/Downloads/Updated Nchalo Estate Data/Updated Nchalo Estate Data/Canals & Dams/nchalo tertiary canals.shp"},"geometry":{"type":"MultiLineString","coordinates":[[[34.873891829790082,-16.207420015855025],[34.87417514279668,-16.207688804959236],[34.874515179706727,-16.206532825195694],[34.8750644901667,-16.20523935326035],[34.875412856607838,-16.204964988530062]]]}},
{"type":"Feature","properties":{"AREA":0.0,"PERIMETER":350.122,"ID":"3618","CAPTION":"3618","STYLE":7,"Canal_Type":"Tertiary","Location":"Nchalo","layer":"nchalo tertiary canals","path":"C:/Users/Hamza Nkhumbwa/Downloads/Updated Nchalo Estate Data/Updated Nchalo Estate Data/Canals & Dams/nchalo tertiary canals.shp"},"geometry":{"type":"MultiLineString","coordinates":[[[34.872266198396993,-16.191360446300301],[34.873976170058562,-16.194058272802952]]]}},
{"type":"Feature","properties":{"AREA":0.0,"PERIMETER":600.073,"ID":"3804","CAPTION":"3804","STYLE":7,"Canal_Type":"Tertiary","Location":"Nchalo","layer":"nchalo tertiary canals","path":"C:/Users/Hamza Nkhumbwa/Downloads/Updated Nchalo Estate Data/Updated Nchalo Estate Data/Canals & Dams/nchalo tertiary canals.shp"},"geometry":{"type":"MultiLineString","coordinates":[[[34.870672388532178,-16.215858372792528],[34.870459257067324,-16.215588961478456],[34.870801885459151,-16.214704251613629],[34.870716332378933,-16.213077268871352],[34.870692650922088,-16.210568049690419]]]}},
{"type":"Feature","properties":{"AREA":0.0,"PERIMETER":1290.17,"ID":"3808","CAPTION":"3808","STYLE":7,"Canal_Type":"Tertiary","Location":"Nchalo","layer":"nchalo tertiary canals","path":"C:/Users/Hamza Nkhumbwa/Downloads/Updated Nchalo Estate Data/Updated Nchalo Estate Data/Canals & Dams/nchalo tertiary canals.shp"},"geometry":{"type":"MultiLineString","coordinates":[[[34.870532648018639,-16.215927426583608],[34.869251949783944,-16.214107503094546],[34.869108372344108,-16.213769655156145],[34.868966713994944,-16.213635257379018],[34.867970636970796,-16.212219752250796],[34.867896613302698,-16.211813468743223],[34.867186418435615,-16.210938023003202],[34.866760176889358,-16.21039919068545],[34.866615968340859,-16.209993523360001],[34.866472398956041,-16.209655672732278],[34.866048077355728,-16.209320289238541],[34.865975974210933,-16.209117455184508],[34.86505268275419,-16.207972582355804],[34.865119042738542,-16.20756506405306],[34.864837016560223,-16.207431895520767],[34.864124939240597,-16.206352985127808]]]}},
{"type":"Feature","properties":{"AREA":0.0,"PERIMETER":842.5,"ID":"2505","CAPTION":"2505","STYLE":7,"Canal_Type":"Tertiary","Location":"Nchalo","layer":"nchalo tertiary canals","path":"C:/Users/Hamza Nkhumbwa/Downloads/Updated Nchalo Estate Data/Updated Nchalo Estate Data/Canals & Dams/nchalo tertiary canals.shp"},"geometry":{"type":"MultiLineString","coordinates":[[[34.871098653253512,-16.216397194645651],[34.871383258048901,-16.21680161965665],[34.873307257786941,-16.219836649831578],[34.873235142447932,-16.219633819613648],[34.876166488117228,-16.217844550341241]]]}},
{"type":"Feature","properties":{"AREA":0.0,"PERIMETER":1695.561,"ID":"2521","CAPTION":"2521","STYLE":7,"Canal_Type":"Tertiary","Location":"Nchalo","layer":"nchalo tertiary canals","path":"C:/Users/Hamza Nkhumbwa/Downloads/Updated Nchalo Estate Data/Updated Nchalo Estate Data/Canals & Dams/nchalo tertiary canals.shp"},"geometry":{"type":"MultiLineString","coordinates":[[[34.875926180897018,-16.222119470117416],[34.881510640802638,-16.218814574281041],[34.889326097369896,-16.213929803665817]]]}},
{"type":"Feature","properties":{"AREA":0.0,"PERIMETER":1248.674,"ID":"2514","CAPTION":"2514","STYLE":7,"Canal_Type":"Tertiary","Location":"Nchalo","layer":"nchalo tertiary canals","path":"C:/Users/Hamza Nkhumbwa/Downloads/Updated Nchalo Estate Data/Updated Nchalo Estate Data/Canals & Dams/nchalo tertiary canals.shp"},"geometry":{"type":"MultiLineString","coordinates":[[[34.882975626639379,-16.217852075088818],[34.882762477376417,-16.217582678168238],[34.882443062533611,-16.213516193254559],[34.885725167660105,-16.211723697508329],[34.889028536400474,-16.212169085731951]]]}},
{"type":"Feature","properties":{"AREA":0.0,"PERIMETER":1021.256,"ID":"2525","CAPTION":"2525","STYLE":7,"Canal_Type":"Tertiary","Location":"Nchalo","layer":"nchalo tertiary canals","path":"C:/Users/Hamza Nkhumbwa/Downloads/Updated Nchalo Estate Data/Updated Nchalo Estate Data/Canals & Dams/nchalo tertiary canals.shp"},"geometry":{"type":"MultiLineString","coordinates":[[[34.876923653653776,-16.223670558279661],[34.882050300606529,-16.223896435420503],[34.884075566470486,-16.222793311786983],[34.885329344091346,-16.221764848388428],[34.885677720887465,-16.221490465643754]]]}},
{"type":"Feature","properties":{"AREA":0.0,"PERIMETER":278.622,"ID":"2527","CAPTION":"2527","STYLE":7,"Canal_Type":"Tertiary","Location":"Nchalo","layer":"nchalo tertiary canals","path":"C:/Users/Hamza Nkhumbwa/Downloads/Updated Nchalo Estate Data/Updated Nchalo Estate Data/Canals & Dams/nchalo tertiary canals.shp"},"geometry":{"type":"MultiLineString","coordinates":[[[34.876369178173647,-16.224421505598642],[34.877583678667165,-16.226648890012559]]]}},
{"type":"Feature","properties":{"AREA":0.0,"PERIMETER":837.121,"ID":"2610","CAPTION":"2610","STYLE":7,"Canal_Type":"Tertiary","Location":"Nchalo","layer":"nchalo tertiary canals","path":"C:/Users/Hamza Nkhumbwa/Downloads/Updated Nchalo Estate Data/Updated Nchalo Estate Data/Canals & Dams/nchalo tertiary canals.shp"},"geometry":{"type":"MultiLineString","coordinates":[[[34.864542854675065,-16.220931168203354],[34.864263999828651,-16.221137085575101],[34.868322540243405,-16.227205407860055]]]}},
{"type":"Feature","properties":{"AREA":0.0,"PERIMETER":1376.493,"ID":"2607","CAPTION":"2607","STYLE":7,"Canal_Type":"Tertiary","Location":"Nchalo","layer":"nchalo tertiary canals","path":"C:/Users/Hamza Nkhumbwa/Downloads/Updated Nchalo Estate Data/Updated Nchalo Estate Data/Canals & Dams/nchalo tertiary canals.shp"},"geometry":{"type":"MultiLineString","coordinates":[[[34.865800568272654,-16.220309711831838],[34.864613685380412,-16.220998368355176],[34.870879014869189,-16.2303027024988]]]}},
{"type":"Feature","properties":{"AREA":0.0,"PERIMETER":1359.71,"ID":"2407","CAPTION":"2407","STYLE":7,"Canal_Type":"Tertiary","Location":"Nchalo","layer":"nchalo tertiary canals","path":"C:/Users/Hamza Nkhumbwa/Downloads/Updated Nchalo Estate Data/Updated Nchalo Estate Data/Canals & Dams/nchalo tertiary canals.shp"},"geometry":{"type":"MultiLineString","coordinates":[[[34.891631701592814,-16.220148864617467],[34.902307734524342,-16.213474771175104]]]}},
{"type":"Feature","properties":{"AREA":0.0,"PERIMETER":1589.081,"ID":"2421","CAPTION":"2421","STYLE":7,"Canal_Type":"Tertiary","Location":"Nchalo","layer":"nchalo tertiary canals","path":"C:/Users/Hamza Nkhumbwa/Downloads/Updated Nchalo Estate Data/Updated Nchalo Estate Data/Canals & Dams/nchalo tertiary canals.shp"},"geometry":{"type":"MultiLineString","coordinates":[[[34.891205665671826,-16.212285347679305],[34.898743105752366,-16.207741858228488],[34.898336991681695,-16.201980661453838]]]}},
{"type":"Feature","properties":{"AREA":0.0,"PERIMETER":1098.889,"ID":"2418","CAPTION":"2418","STYLE":7,"Canal_Type":"Tertiary","Location":"Nchalo","layer":"nchalo tertiary canals","path":"C:/Users/Hamza Nkhumbwa/Downloads/Updated Nchalo Estate Data/Updated Nchalo Estate Data/Canals & Dams/nchalo tertiary canals.shp"},"geometry":{"type":"MultiLineString","coordinates":[[[34.890603412468572,-16.208017942671912],[34.890504775620691,-16.20503466378214],[34.89657589878211,-16.201318175581235]]]}},
{"type":"Feature","properties":{"AREA":0.0,"PERIMETER":816.673,"ID":"2412","CAPTION":"2412","STYLE":7,"Canal_Type":"Tertiary","Location":"Nchalo","layer":"nchalo tertiary canals","path":"C:/Users/Hamza Nkhumbwa/Downloads/Updated Nchalo Estate Data/Updated Nchalo Estate Data/Canals & Dams/nchalo tertiary canals.shp"},"geometry":{"type":"MultiLineString","coordinates":[[[34.90583363137381,-16.211803678655983],[34.903762855775774,-16.20873383948431],[34.906971208516275,-16.206686882062584]]]}},
{"type":"Feature","properties":{"AREA":0.0,"PERIMETER":2699.563,"ID":"2127","CAPTION":"2127","STYLE":7,"Canal_Type":"Tertiary","Location":"Nchalo","layer":"nchalo tertiary canals","path":"C:/Users/Hamza Nkhumbwa/Downloads/Updated Nchalo Estate Data/Updated Nchalo Estate Data/Canals & Dams/nchalo tertiary canals.shp"},"geometry":{"type":"MultiLineString","coordinates":[[[34.897916397419408,-16.216701682178698],[34.905752059627517,-16.228567999208309],[34.914825372842984,-16.223128444624887]]]}},
{"type":"Feature","properties":{"AREA":0.0,"PERIMETER":510.055,"ID":"2614","CAPTION":"2614","STYLE":7,"Canal_Type":"Tertiary","Location":"Nchalo","layer":"nchalo tertiary canals","path":"C:/Users/Hamza Nkhumbwa/Downloads/Updated Nchalo Estate Data/Updated Nchalo Estate Data/Canals & Dams/nchalo tertiary canals.shp"},"geometry":{"type":"MultiLineString","coordinates":[[[34.873284268052856,-16.232248316757627],[34.877261642516245,-16.229703732802694]]]}},
{"type":"Feature","properties":{"AREA":0.0,"PERIMETER":2480.622,"ID":"2626","CAPTION":"2626","STYLE":7,"Canal_Type":"Tertiary","Location":"Nchalo","layer":"nchalo tertiary canals","path":"C:/Users/Hamza Nkhumbwa/Downloads/Updated Nchalo Estate Data/Updated Nchalo Estate Data/Canals & Dams/nchalo tertiary canals.shp"},"geometry":{"type":"MultiLineString","coordinates":[[[34.873443916130412,-16.234281571436195],[34.880210545842743,-16.244530613594453],[34.885938133340403,-16.248820312018211],[34.888800194162066,-16.247099279761223]]]}},
{"type":"Feature","properties":{"AREA":0.0,"PERIMETER":570.481,"ID":"2623","CAPTION":"2623","STYLE":7,"Canal_Type":"Tertiary","Location":"Nchalo","layer":"nchalo tertiary canals","path":"C:/Users/Hamza Nkhumbwa/Downloads/Updated Nchalo Estate Data/Updated Nchalo Estate Data/Canals & Dams/nchalo tertiary canals.shp"},"geometry":{"type":"MultiLineString","coordinates":[[[34.880279456577057,-16.24439435852177],[34.884745761418991,-16.241573997232162]]]}},
{"type":"Feature","properties":{"AREA":0.0,"PERIMETER":529.084,"ID":"2619","CAPTION":"2619","STYLE":7,"Canal_Type":"Tertiary","Location":"Nchalo","layer":"nchalo tertiary canals","path":"C:/Users/Hamza Nkhumbwa/Downloads/Updated Nchalo Estate Data/Updated Nchalo Estate Data/Canals & Dams/nchalo tertiary canals.shp"},"geometry":{"type":"MultiLineString","coordinates":[[[34.876292290497176,-16.238529177716828],[34.880480328317844,-16.23598266202788]]]}},
{"type":"Feature","properties":{"AREA":0.0,"PERIMETER":726.024,"ID":"4116","CAPTION":"4116","STYLE":7,"Canal_Type":"Tertiary","Location":"Nchalo","layer":"nchalo tertiary canals","path":"C:/Users/Hamza Nkhumbwa/Downloads/Updated Nchalo Estate Data/Updated Nchalo Estate Data/Canals & Dams/nchalo tertiary canals.shp"},"geometry":{"type":"MultiLineString","coordinates":[[[34.850222770843153,-16.243505889427333],[34.851917751683288,-16.244576251647839],[34.852082286843057,-16.247152079817369],[34.854122599164256,-16.247608997125624]]]}},
{"type":"Feature","properties":{"AREA":0.0,"PERIMETER":2485.008,"ID":"2507","CAPTION":"1507","STYLE":7,"Canal_Type":"Tertiary","Location":"Nchalo","layer":"nchalo tertiary canals","path":"C:/Users/Hamza Nkhumbwa/Downloads/Updated Nchalo Estate Data/Updated Nchalo Estate Data/Canals & Dams/nchalo tertiary canals.shp"},"geometry":{"type":"MultiLineString","coordinates":[[[34.895163740594953,-16.251789959713069],[34.894458470495934,-16.25145716070702],[34.895068188233473,-16.249145781872855],[34.896827724746267,-16.242280084714029],[34.90317860287864,-16.238357352835077],[34.905817044198436,-16.242606377820984]]]}},
{"type":"Feature","properties":{"AREA":0.0,"PERIMETER":1746.855,"ID":"1405","CAPTION":"1405","STYLE":7,"Canal_Type":"Tertiary","Location":"Nchalo","layer":"nchalo tertiary canals","path":"C:/Users/Hamza Nkhumbwa/Downloads/Updated Nchalo Estate Data/Updated Nchalo Estate Data/Canals & Dams/nchalo tertiary canals.shp"},"geometry":{"type":"MultiLineString","coordinates":[[[34.896071814535745,-16.251307085456414],[34.900677099036031,-16.248349510112241],[34.906957869952919,-16.244427284030603],[34.908878767984511,-16.247055007574772]]]}},
{"type":"Feature","properties":{"AREA":0.0,"PERIMETER":548.377,"ID":"1408","CAPTION":"1408","STYLE":7,"Canal_Type":"Tertiary","Location":"Nchalo","layer":"nchalo tertiary canals","path":"C:/Users/Hamza Nkhumbwa/Downloads/Updated Nchalo Estate Data/Updated Nchalo Estate Data/Canals & Dams/nchalo tertiary canals.shp"},"geometry":{"type":"MultiLineString","coordinates":[[[34.900956597660496,-16.248211360554393],[34.903595150045064,-16.252460400521265]]]}},
{"type":"Feature","properties":{"AREA":0.0,"PERIMETER":341.405,"ID":"1502","CAPTION":"1502","STYLE":7,"Canal_Type":"Tertiary","Location":"Nchalo","layer":"nchalo tertiary canals","path":"C:/Users/Hamza Nkhumbwa/Downloads/Updated Nchalo Estate Data/Updated Nchalo Estate Data/Canals & Dams/nchalo tertiary canals.shp"},"geometry":{"type":"MultiLineString","coordinates":[[[34.899828679201605,-16.240422035358435],[34.901608395502322,-16.242983283071922]]]}},
{"type":"Feature","properties":{"AREA":0.0,"PERIMETER":1975.232,"ID":"1416","CAPTION":"1416","STYLE":7,"Canal_Type":"Tertiary","Location":"Nchalo","layer":"nchalo tertiary canals","path":"C:/Users/Hamza Nkhumbwa/Downloads/Updated Nchalo Estate Data/Updated Nchalo Estate Data/Canals & Dams/nchalo tertiary canals.shp"},"geometry":{"type":"MultiLineString","coordinates":[[[34.8955349089712,-16.253889099984423],[34.898171487969698,-16.25793476359495],[34.90152301290361,-16.256005707699995],[34.904732103111911,-16.253874422490156],[34.907726422669604,-16.258594939800954]]]}},
{"type":"Feature","properties":{"AREA":0.0,"PERIMETER":603.869,"ID":"1413","CAPTION":"1413","STYLE":7,"Canal_Type":"Tertiary","Location":"Nchalo","layer":"nchalo tertiary canals","path":"C:/Users/Hamza Nkhumbwa/Downloads/Updated Nchalo Estate Data/Updated Nchalo Estate Data/Canals & Dams/nchalo tertiary canals.shp"},"geometry":{"type":"MultiLineString","coordinates":[[[34.90131305534161,-16.256075413645963],[34.904376235687209,-16.260659721979952]]]}},
{"type":"Feature","properties":{"AREA":0.0,"PERIMETER":1454.003,"ID":"1147","CAPTION":"1147","STYLE":7,"Canal_Type":"Tertiary","Location":"Nchalo","layer":"nchalo tertiary canals","path":"C:/Users/Hamza Nkhumbwa/Downloads/Updated Nchalo Estate Data/Updated Nchalo Estate Data/Canals & Dams/nchalo tertiary canals.shp"},"geometry":{"type":"MultiLineString","coordinates":[[[34.884784844855332,-16.282470088630397],[34.884507877641305,-16.282879485731002],[34.883990857353766,-16.287563776534451],[34.891877062646245,-16.289799284612329]]]}}
]
}
