{
"type": "FeatureCollection",
"name": "alldamz",
"crs": { "type": "name", "properties": { "name": "urn:ogc:def:crs:OGC:1.3:CRS84" } },
"features": [
{"type":"Feature","properties":{"AREA":2.1,"PERIMETER":662.9,"ID":"70","CAPTION":"70","STYLE":7,"layer":"damz","path":"C:/Users/Hamza Nkhumbwa/Downloads/damz.geojson"},"geometry":{"type":"MultiPolygon","coordinates":[[[[34.914920107065171,-16.370186970554649],[34.916955786329083,-16.371621861007728],[34.916070359292959,-16.372193494363444],[34.915232934345852,-16.371388387322089],[34.914877096838268,-16.370187361826709],[34.914907702592181,-16.37017521876265],[34.914920107065171,-16.370186970554649]]]]}},
{"type":"Feature","properties":{"AREA":null,"PERIMETER":null,"ID":"71","CAPTION":"71","STYLE":7,"layer":"damz","path":"C:/Users/Hamza Nkhumbwa/Downloads/damz.geojson"},"geometry":{"type":"MultiPolygon","coordinates":[[[[34.904835402937941,-16.382996131871124],[34.904701762969495,-16.382702741749199],[34.904886315452508,-16.382627420561004],[34.904925174523385,-16.382700718672986],[34.905120573944998,-16.382620038348765],[34.9051354385428,-16.38246734287026],[34.905167059308049,-16.382356581445585],[34.905204026767542,-16.382235250107108],[34.905322985568048,-16.382139479758045],[34.905339230424644,-16.382128811200232],[34.90542595498038,-16.382080679149006],[34.905545373758514,-16.382032250973605],[34.90569723097996,-16.381957225327842],[34.905827445380574,-16.381898177721833],[34.905952210669994,-16.381839179480266],[34.906126068310854,-16.381784997050673],[34.906213099387628,-16.38176842630687],[34.906349529785885,-16.381788232815865],[34.906437174624969,-16.381834784967108],[34.906519626334251,-16.381907687742981],[34.906580281991069,-16.381980787961382],[34.906614050530457,-16.382090956931155],[34.906592970649228,-16.382164798011718],[34.906539401109647,-16.382259976384567],[34.906366003608603,-16.382361501441164],[34.906110870134668,-16.382463767032053],[34.905899124305492,-16.382544596398102],[34.905747266679356,-16.382619622293092],[34.905573663857673,-16.382700105788274],[34.905405356612334,-16.382764758990707],[34.905318273868211,-16.382776069206308],[34.905258027441143,-16.382745050575455],[34.905214128191226,-16.382713883931771],[34.905186473862088,-16.382672048659401],[34.905164524213845,-16.382656465263317],[34.905121034047035,-16.38266738063691],[34.905104840188109,-16.382683309430757],[34.905094197693074,-16.382709709433136],[34.905094453302709,-16.382736010667386],[34.90511090270919,-16.382746383108469],[34.905149608517569,-16.38280390049378],[34.905160813372909,-16.38283536326859],[34.90518281416729,-16.382856206909253],[34.905112180778211,-16.382877889477889],[34.905014608801594,-16.382931380387024],[34.904927730416489,-16.382963731439759],[34.904862546083564,-16.382985364650509],[34.904835351822072,-16.382990871623619],[34.904835402937941,-16.382996131871124]]]]}},
{"type":"Feature","properties":{"AREA":null,"PERIMETER":null,"ID":"61","CAPTION":"61","STYLE":7,"layer":"damz","path":"C:/Users/Hamza Nkhumbwa/Downloads/damz.geojson"},"geometry":{"type":"MultiPolygon","coordinates":[[[[34.904968020939869,-16.383184316718015],[34.90497367448824,-16.383205308424095],[34.904967969819815,-16.383179056471],[34.905592261048866,-16.382931408824799],[34.905673690222223,-16.382899106809706],[34.905749721381035,-16.382872114379229],[34.90578256920692,-16.382887598968974],[34.905793518459966,-16.382892760475549],[34.905815826173061,-16.382945165509302],[34.905827337998183,-16.383008189836595],[34.905881930945853,-16.383018216613529],[34.905936217024106,-16.382996681844094],[34.905957808743246,-16.382975443373351],[34.905946654829762,-16.382949240833618],[34.905929949642456,-16.382912567176813],[34.905940592028649,-16.38288616721016],[34.905967479353123,-16.38284909856738],[34.905983519638312,-16.38281738891482],[34.906015549117598,-16.382748709429624],[34.90604778316618,-16.38270107091725],[34.90611846743397,-16.382684648228999],[34.906226988252705,-16.382636318401666],[34.906351702615517,-16.382572059647583],[34.906498213200905,-16.382507603215551],[34.906563141340328,-16.382459668320152],[34.906666110469821,-16.382400867193695],[34.906834519289824,-16.382346733539297],[34.906931988061267,-16.382282721382843],[34.907122192819358,-16.382228389927867],[34.907214877699168,-16.382232810318872],[34.907297022769455,-16.382274151230298],[34.907335729065188,-16.382331668157711],[34.907385487005016,-16.382404866910786],[34.90739730637145,-16.38249945254465],[34.907382034090546,-16.382610066011321],[34.907344811997518,-16.382705096328095],[34.907274741969459,-16.382784642367731],[34.907166272639515,-16.382838232956544],[34.907030660265029,-16.382902590985459],[34.906835415141281,-16.382999053887151],[34.906667005781195,-16.3830531875982],[34.90657483212479,-16.383101369493712],[34.90648255609868,-16.383139030868616],[34.906411974032395,-16.383165974110987],[34.906341238404458,-16.383177136603898],[34.90625410442366,-16.383183187044221],[34.906210460698667,-16.383178321785969],[34.906133764540598,-16.383136931156685],[34.906057017193227,-16.383090280119042],[34.906018515663604,-16.383053804045453],[34.905980218734406,-16.383038368872221],[34.905936830771715,-16.383059804907163],[34.905920585881404,-16.383070473514962],[34.905909994630896,-16.383102133792512],[34.905992293241759,-16.383159255933499],[34.906036141556868,-16.383185162213007],[34.906140185482101,-16.383236826536386],[34.906189534049304,-16.383267943576879],[34.906216830529544,-16.383272956982431],[34.906211688386861,-16.383304567822435],[34.906211893002926,-16.383325608861782],[34.906146606435883,-16.383336721914301],[34.905993981120517,-16.383332844247299],[34.905873896909796,-16.383312889435526],[34.905819355021762,-16.383308122909717],[34.9056993219044,-16.38329342830686],[34.905601033998309,-16.383273275860859],[34.905470000502945,-16.383248159362495],[34.9053774684863,-16.383259518986179],[34.905257742172232,-16.383276385600801],[34.90507288254544,-16.383320145680404],[34.905034739053562,-16.383320491139351],[34.904968020939869,-16.383184316718015]]]]}},
{"type":"Feature","properties":{"AREA":null,"PERIMETER":null,"ID":"72","CAPTION":"72","STYLE":7,"layer":"damz","path":"C:/Users/Hamza Nkhumbwa/Downloads/damz.geojson"},"geometry":{"type":"MultiPolygon","coordinates":[[[[34.893820930354771,-16.3874146587778],[34.893949830818585,-16.387218850354607],[34.894144833397235,-16.387096097026784],[34.894383785374927,-16.387009772804159],[34.894628135533551,-16.386918138962105],[34.894741958642193,-16.386853984551298],[34.894866781861523,-16.386800252509964],[34.894975613390933,-16.386783489701102],[34.895041054775632,-16.38678816076089],[34.895063309366016,-16.386835306898163],[34.895150903647263,-16.386876603503062],[34.895189404209745,-16.38691308175537],[34.895244354136544,-16.386959933226031],[34.895294567111158,-16.387080477701591],[34.895306076078079,-16.387143502911186],[34.895268694652039,-16.3872227509328],[34.895133176368915,-16.38729762253983],[34.894959411672339,-16.387362317301292],[34.894042305850078,-16.387765134949252],[34.89396061811825,-16.387771131398804],[34.893938770362247,-16.387766067426984],[34.893884023742771,-16.387740256724669],[34.893817768720744,-16.387651420738667],[34.893795260056727,-16.387577972989931],[34.893788844977209,-16.387478076625893],[34.893799235144506,-16.387425375624048],[34.893820930354771,-16.3874146587778]]]]}},
{"type":"Feature","properties":{"AREA":null,"PERIMETER":null,"ID":"62","CAPTION":"62","STYLE":7,"layer":"damz","path":"C:/Users/Hamza Nkhumbwa/Downloads/damz.geojson"},"geometry":{"type":"MultiPolygon","coordinates":[[[[34.894826639731114,-16.387721244096113],[34.894907716997338,-16.387652123874226],[34.896020330279185,-16.387179150531487],[34.896113068711458,-16.387188835868294],[34.896162417018232,-16.387219955381621],[34.896201274111078,-16.387293255323488],[34.896223783534488,-16.387366702725966],[34.896241556435349,-16.387513843127614],[34.896214971987504,-16.387582472468093],[34.896182734777149,-16.387630109786677],[34.896053073033784,-16.387747015152623],[34.895852418389296,-16.387848778223024],[34.895375175326372,-16.388089813451884],[34.895282945226811,-16.388132730640198],[34.895146815883223,-16.388144478953627],[34.895032127371103,-16.388119208833565],[34.894939032422457,-16.388072701067319],[34.894856429133164,-16.387984012781409],[34.894790275265301,-16.387905697710998],[34.894762164395516,-16.387816518379442],[34.894750553883803,-16.387742972577012],[34.89481024119349,-16.387716131117337],[34.894831885503514,-16.387700153826756],[34.894837436454821,-16.387710625345807],[34.894826639731114,-16.387721244096113]]]]}},
{"type":"Feature","properties":{"AREA":null,"PERIMETER":null,"ID":"73","CAPTION":"73","STYLE":7,"layer":"damz","path":"C:/Users/Hamza Nkhumbwa/Downloads/damz.geojson"},"geometry":{"type":"MultiPolygon","coordinates":[[[[34.884834932262976,-16.393140191586916],[34.884856628665723,-16.393129475554407],[34.884813438236769,-16.393171948899294],[34.884731747652523,-16.393177942022476],[34.884660753376984,-16.393162796195657],[34.884589455543527,-16.393116088450437],[34.884561904806802,-16.393084770804439],[34.884495600932865,-16.392990671365016],[34.884472234652371,-16.392827797036453],[34.884482020210683,-16.392711972438409],[34.884545895011676,-16.392553576937598],[34.884670016613541,-16.392426205914532],[34.884859125986075,-16.392256166092071],[34.884978000270614,-16.392149885059652],[34.885096925110197,-16.39204886427509],[34.885216153469095,-16.391979405253519],[34.885292090491589,-16.391941898975677],[34.885444622496351,-16.391935270410745],[34.885537464463106,-16.391955480900968],[34.885597660838776,-16.391981244820574],[34.885663458426258,-16.392022740819261],[34.885718205393431,-16.392048553642127],[34.885751256142285,-16.392085082559909],[34.885806509489257,-16.392163498367641],[34.885823313412835,-16.392210694507032],[34.885812971581529,-16.392268655710382],[34.885797180433023,-16.392326665724816],[34.884889173334315,-16.393113401501278],[34.884834932262976,-16.393140191586916]]]]}},
{"type":"Feature","properties":{"AREA":null,"PERIMETER":null,"ID":"63","CAPTION":"63","STYLE":7,"layer":"damz","path":"C:/Users/Hamza Nkhumbwa/Downloads/damz.geojson"},"geometry":{"type":"MultiPolygon","coordinates":[[[[34.884875659497041,-16.393408125462468],[34.885891541764408,-16.392504685256711],[34.885945985054867,-16.392498936132128],[34.886005928437157,-16.392498398408939],[34.886055378122933,-16.392540040909338],[34.886105030408402,-16.392602724595555],[34.886149233337377,-16.392665457222101],[34.886199746701749,-16.392817566105567],[34.886194803788143,-16.39287021805848],[34.88617926589815,-16.392954529657008],[34.88613678488062,-16.393070647569242],[34.886012714612427,-16.393203279694561],[34.885931834311876,-16.393293438218393],[34.885791212904586,-16.393405175626746],[34.885466880491627,-16.393681644418326],[34.885309505170547,-16.393751445699291],[34.885206016621161,-16.393757634510418],[34.885124173887689,-16.393747846903683],[34.885036729875665,-16.393722327152567],[34.884970982406116,-16.393686091379323],[34.884877582861179,-16.393608017319629],[34.884827930644704,-16.393545333267735],[34.884816424379657,-16.393482307274457],[34.884875710111459,-16.393413385765751],[34.884875659497041,-16.393408125462468]]]]}},
{"type":"Feature","properties":{"AREA":null,"PERIMETER":null,"ID":"65","CAPTION":"65","STYLE":7,"layer":"damz","path":"C:/Users/Hamza Nkhumbwa/Downloads/damz.geojson"},"geometry":{"type":"MultiPolygon","coordinates":[[[[34.876046191268934,-16.400455013686049],[34.876073288256606,-16.400438989390832],[34.876003148484592,-16.400513266537722],[34.875927105370728,-16.40054024930523],[34.875855907128837,-16.400504059343977],[34.87579550747239,-16.400457251414871],[34.875735107844157,-16.400410443465201],[34.875690452469613,-16.400300365509906],[34.875678091897477,-16.400147913083543],[34.875698630675473,-16.400016210131511],[34.875762917733461,-16.399899899041444],[34.875898150640992,-16.399793476303525],[34.876260352315221,-16.399485117460966],[34.877027794286157,-16.39881014523808],[34.877103634865328,-16.398762120856532],[34.877195874589887,-16.398719210753139],[34.877282866396548,-16.398697390584402],[34.877375358195536,-16.398680782093177],[34.877446303798713,-16.398690669902162],[34.87752824937629,-16.39871098103443],[34.877582947108792,-16.398731535488782],[34.877703695594064,-16.398819890012341],[34.877763994214526,-16.398856176760393],[34.877791897973104,-16.398924317564489],[34.877749713539401,-16.399071996369383],[34.876046191268934,-16.400455013686049]]]]}},
{"type":"Feature","properties":{"AREA":null,"PERIMETER":null,"ID":"64","CAPTION":"64","STYLE":7,"layer":"damz","path":"C:/Users/Hamza Nkhumbwa/Downloads/damz.geojson"},"geometry":{"type":"MultiPolygon","coordinates":[[[[34.876800465036595,-16.400111588747684],[34.877692743921493,-16.399382891423294],[34.877779433277354,-16.399329509094166],[34.877866677483773,-16.399333990338377],[34.877915875305447,-16.399349333055703],[34.877987376031953,-16.399417084321033],[34.878031830584582,-16.399506120332838],[34.878060239066706,-16.399626864353621],[34.87805029836089,-16.399726908049416],[34.878034908104603,-16.399827000376675],[34.877943323952991,-16.399938295120112],[34.877835491730345,-16.400060256627402],[34.877749054316105,-16.400139940682735],[34.877602973515479,-16.400251722230244],[34.877451594157009,-16.400379333412474],[34.877311063504663,-16.400501586816787],[34.877207772444883,-16.400528813439344],[34.877099031712703,-16.400556088624253],[34.877055434540409,-16.400556478036577],[34.876978887340691,-16.40053085786823],[34.876863839671877,-16.400468755967445],[34.87681438950915,-16.400427111337898],[34.876748489626998,-16.400375092048471],[34.876715287574534,-16.40032278073857],[34.876714783396729,-16.400270177425806],[34.876725027226151,-16.40020169573965],[34.876746422465601,-16.400159418409377],[34.876795116248779,-16.400122158064505],[34.876800465036595,-16.400111588747684]]]]}},
{"type":"Feature","properties":{"AREA":null,"PERIMETER":null,"ID":"66","CAPTION":"66","STYLE":7,"layer":"damz","path":"C:/Users/Hamza Nkhumbwa/Downloads/damz.geojson"},"geometry":{"type":"MultiPolygon","coordinates":[[[[34.867192760600531,-16.404200644467444],[34.867225509396846,-16.40420561423214],[34.867122114138894,-16.404222315461862],[34.867094564251012,-16.404190995427744],[34.867066964131737,-16.404154415037862],[34.867049912436002,-16.404080915326357],[34.867038210111744,-16.403996846415463],[34.867048106311628,-16.403891542389896],[34.867079951984763,-16.403801825715238],[34.867166144821326,-16.403695843636005],[34.867258138542304,-16.403626635693538],[34.867998251946787,-16.40350958026443],[34.868265039008072,-16.40348090425254],[34.868401132266456,-16.403463911751945],[34.86854302669672,-16.403483693202716],[34.86864722482531,-16.403551156948705],[34.868691023726399,-16.403571810666985],[34.868713073785564,-16.403597918530508],[34.868768625860746,-16.4037079013248],[34.868801927035669,-16.40377073472893],[34.868813579796381,-16.403849543120419],[34.868808732645313,-16.403912715818954],[34.86877118687093,-16.403976179413117],[34.868711590955101,-16.404013535080928],[34.868624545287716,-16.404030091617877],[34.867443450356319,-16.404198416503952],[34.867192760600531,-16.404200644467444]]]]}},
{"type":"Feature","properties":{"AREA":null,"PERIMETER":null,"ID":"75","CAPTION":"75","STYLE":7,"layer":"damz","path":"C:/Users/Hamza Nkhumbwa/Downloads/damz.geojson"},"geometry":{"type":"MultiPolygon","coordinates":[[[[34.864624144636927,-16.399194626134509],[34.864144993684221,-16.397865312048477],[34.864144004634475,-16.397761406691746],[34.864304974947466,-16.397708021903345],[34.864413277619938,-16.397776337277854],[34.864502980371121,-16.39777554155803],[34.864556142483096,-16.397705793930619],[34.864681396460369,-16.397670044678573],[34.864843850627935,-16.397772517475364],[34.864916437276733,-16.397858468560152],[34.865009273522745,-16.39818670610488],[34.865138321191104,-16.398549260226972],[34.865193957379049,-16.398739275594995],[34.865231488083047,-16.39891213265334],[34.865196431565479,-16.398999038871676],[34.865053731024354,-16.399086900290335],[34.864749894249812,-16.39921082947037],[34.864660355755795,-16.399228942870639],[34.864606203944518,-16.399194785305369],[34.864624144636927,-16.399194626134509]]]]}},
{"type":"Feature","properties":{"AREA":null,"PERIMETER":null,"ID":"74","CAPTION":"74","STYLE":7,"layer":"damz","path":"C:/Users/Hamza Nkhumbwa/Downloads/damz.geojson"},"geometry":{"type":"MultiPolygon","coordinates":[[[[34.865033053411594,-16.37317413022426],[34.865064965877444,-16.372960869956007],[34.865267343213603,-16.372828013350908],[34.865402780538801,-16.372794047249396],[34.865522339813268,-16.372874901937244],[34.866122786942633,-16.373557659725854],[34.866243593884548,-16.373769565913321],[34.866176965990739,-16.373901219717908],[34.866042307363067,-16.374017093899425],[34.865940962622361,-16.374067141106856],[34.865771587086279,-16.374101408508004],[34.865703244778835,-16.374052865747828],[34.865531999497577,-16.373890555030062],[34.865377723214202,-16.373728093673602],[34.865171294966096,-16.373435031322078],[34.865033053411594,-16.37317413022426]]]]}},
{"type":"Feature","properties":{"AREA":3.195,"PERIMETER":1705.988,"ID":"590","CAPTION":"590","STYLE":7,"layer":"nchalodamz","path":"C:\\Users\\Hamza Nkhumbwa\\OneDrive\\Desktop\\projects\\GIS_JOURNEY\\nchalodamz.geojson"},"geometry":{"type":"MultiPolygon","coordinates":[[[[34.787717118361371,-16.176407314202983],[34.787749481004269,-16.17674690153331],[34.787927622739147,-16.183514266091041],[34.787901631522942,-16.183882665224424],[34.78775408259645,-16.183770619350874],[34.787662341195308,-16.183346566708316],[34.787598376527271,-16.182752350865936],[34.787472997618728,-16.181847113588457],[34.787485991959763,-16.180034421950879],[34.787307106887589,-16.17643908084823],[34.787541289989683,-16.176408791639741],[34.787717118361371,-16.176407314202983]]]]}},
{"type":"Feature","properties":{"AREA":0.364,"PERIMETER":225.226,"ID":"370","CAPTION":"370","STYLE":7,"layer":"nchalodamz","path":"C:\\Users\\Hamza Nkhumbwa\\OneDrive\\Desktop\\projects\\GIS_JOURNEY\\nchalodamz.geojson"},"geometry":{"type":"MultiPolygon","coordinates":[[[[34.858469824253874,-16.18386099862477],[34.858466557643624,-16.183862468036864],[34.858453182221339,-16.183867195763234],[34.858429077352262,-16.18387259360275],[34.858400768149295,-16.183874858282426],[34.858372125693343,-16.183873379487554],[34.858343743679647,-16.183867863994745],[34.858316218489286,-16.183858306523341],[34.858290450082393,-16.183845275554511],[34.858267333025502,-16.183828763271563],[34.858246281743078,-16.183809927483267],[34.858226412430348,-16.183789928742012],[34.858208614285225,-16.183768182794747],[34.85819407465646,-16.183744102921249],[34.858182199869823,-16.183717982551528],[34.858171208874502,-16.183690701698257],[34.85816110975162,-16.183663124947106],[34.858153992528059,-16.183635522070603],[34.858151646359573,-16.183607877573582],[34.858154968486289,-16.183580471720195],[34.858164267893848,-16.183554454501529],[34.858179259876316,-16.183531269268485],[34.85819941853773,-16.183510488425167],[34.858224275046531,-16.183489810684993],[34.858252327636009,-16.183468096340512],[34.858281345302295,-16.183445941300501],[34.858310773976982,-16.183423890695792],[34.858341435718039,-16.183402153540982],[34.858373330516223,-16.183380729835655],[34.858405636322189,-16.183359410564666],[34.858437942129839,-16.183338091289368],[34.858470247930256,-16.183316772009849],[34.858502553714523,-16.183295452726178],[34.858534859500466,-16.183274133438204],[34.858566694532847,-16.183254295179736],[34.858597128143352,-16.183240052614682],[34.858626181909862,-16.183233710936349],[34.858654805382983,-16.183233172593809],[34.858683774246543,-16.183237674319578],[34.858713698365861,-16.183248651646242],[34.858743974615116,-16.183265389481981],[34.85877280038563,-16.183286462650077],[34.858799878825153,-16.183312017832019],[34.858826410801676,-16.183342909118551],[34.858851035559638,-16.18337713105764],[34.858869830807699,-16.183409818931338],[34.858881446575218,-16.183440120092953],[34.858887105304511,-16.183471193826428],[34.858886980351613,-16.183505632102044],[34.858879423586693,-16.183542584808897],[34.858864226563576,-16.183575713970324],[34.858842857302911,-16.183602557147356],[34.858814473827849,-16.183628741202682],[34.85878037279295,-16.183656251464093],[34.858745763746668,-16.18368183126795],[34.858712727287497,-16.183704741927667],[34.858680215025338,-16.183726762869885],[34.858647702747405,-16.183748783876851],[34.858615190461336,-16.18377080481061],[34.858582678177328,-16.183792825808968],[34.858550968698871,-16.183814139899212],[34.858520179432197,-16.183833634522458],[34.858492083346192,-16.183849565147746],[34.858474573718446,-16.183858651666128],[34.858469824253874,-16.18386099862477]]]]}},
{"type":"Feature","properties":{"AREA":3.05,"PERIMETER":736.69,"ID":"570","CAPTION":"570","STYLE":7,"layer":"nchalodamz","path":"C:\\Users\\Hamza Nkhumbwa\\OneDrive\\Desktop\\projects\\GIS_JOURNEY\\nchalodamz.geojson"},"geometry":{"type":"MultiPolygon","coordinates":[[[[34.799679816080577,-16.184081739701284],[34.799639166993813,-16.184014374613081],[34.799638816382227,-16.183975686628344],[34.79963855342416,-16.183946670639688],[34.79963576036085,-16.183884025997951],[34.799629056825715,-16.183790585797158],[34.799625318759716,-16.183675387604012],[34.799624080342348,-16.18356458273006],[34.799629455973658,-16.183485642107012],[34.799645030184031,-16.183446345720025],[34.799681438455629,-16.183431144734111],[34.799759393621805,-16.183424906231163],[34.799876026192528,-16.183421202512335],[34.800005311847698,-16.183417779779688],[34.80013459748929,-16.18341435689991],[34.800263883117914,-16.183410933941936],[34.800393168733585,-16.183407510905766],[34.800523272240731,-16.183403862593817],[34.800655829428727,-16.183399538539696],[34.80079084030384,-16.183394538669944],[34.800926669057723,-16.183389313516098],[34.801062497803997,-16.183384088276089],[34.801198326524819,-16.183378862950079],[34.801323162368597,-16.183375598309912],[34.801410818500138,-16.183379949505056],[34.801461269567071,-16.183404616868899],[34.80151325510284,-16.183464145748268],[34.801586170240888,-16.183553108468562],[34.801667462358921,-16.183651304554726],[34.801748754559277,-16.183749500600797],[34.801829480319277,-16.183847226047082],[34.801908506616051,-16.183943539568453],[34.801985833428205,-16.184038441236353],[34.802062593801033,-16.184132872308837],[34.802139354248141,-16.184227303276462],[34.802216114779704,-16.184321734277052],[34.802284716629877,-16.184407744927892],[34.802325676793799,-16.184468182040607],[34.802330888868504,-16.18450039765667],[34.802313113420482,-16.184516508404439],[34.802273652669854,-16.184524483355645],[34.802192872583582,-16.184529242839528],[34.802072560851109,-16.18453416763758],[34.801939073941284,-16.184539373749359],[34.801805812249015,-16.184544505066086],[34.801673226216408,-16.184549412302683],[34.801541315844098,-16.184554095460349],[34.801409630690543,-16.184558703825253],[34.801277945513128,-16.184563312109251],[34.801146260330327,-16.184567920381124],[34.801014575123041,-16.184572528503168],[34.80086939971293,-16.184567637418137],[34.800772902777524,-16.184580226716541],[34.800680199046681,-16.184582127513085],[34.800617644348669,-16.184581638445174],[34.800585350786662,-16.184596401377984],[34.800545227487689,-16.18458706838388],[34.800395093992009,-16.184588339553677],[34.800054966687583,-16.184610564466922],[34.799923360555589,-16.184447242092027],[34.799821868964678,-16.184293337470706],[34.799771298556898,-16.184235729125614],[34.799700272128433,-16.184129930200349],[34.799679816080577,-16.184081739701284]]]]}},
{"type":"Feature","properties":{"AREA":1.27,"PERIMETER":434.465,"ID":"560","CAPTION":"560","STYLE":7,"layer":"nchalodamz","path":"C:\\Users\\Hamza Nkhumbwa\\OneDrive\\Desktop\\projects\\GIS_JOURNEY\\nchalodamz.geojson"},"geometry":{"type":"MultiPolygon","coordinates":[[[[34.806033532135523,-16.183486875305952],[34.806033751989794,-16.183478982480732],[34.806034631406426,-16.183447411110858],[34.806035917215716,-16.183396390696974],[34.806038126565191,-16.183350717001229],[34.806045728465143,-16.183320779425159],[34.806063058669146,-16.183302313933574],[34.80608834698964,-16.183293080929523],[34.80612295298085,-16.183290250629668],[34.806176023993501,-16.183289518057787],[34.806246667248843,-16.183288918060594],[34.806323069860191,-16.183288269120823],[34.806399472468051,-16.183287620153635],[34.806475875072437,-16.183286971159038],[34.80655227767334,-16.183286322137022],[34.806628680279687,-16.183285673087511],[34.806699323515957,-16.183285072940141],[34.806752399637354,-16.183284903855284],[34.806787338230812,-16.1832865797398],[34.806815386920974,-16.183292259668633],[34.806841443022897,-16.183303311151736],[34.806863467832471,-16.183320033210542],[34.806882322474955,-16.183347322342762],[34.806902931826137,-16.183394380311551],[34.806927319244252,-16.183459217270876],[34.806953158723076,-16.183529790935783],[34.806978998223293,-16.18360036466418],[34.807004837753183,-16.183670938387042],[34.807030677294911,-16.18374151210454],[34.807056516866325,-16.183812085816506],[34.807082356449584,-16.183882659523103],[34.807108196062522,-16.18395323322417],[34.807133107264512,-16.184022199003852],[34.807155233199573,-16.184086341168911],[34.807174573871244,-16.184145659651698],[34.807190717937708,-16.184199819855088],[34.807200057435608,-16.184243328699186],[34.807201423320748,-16.18427591428366],[34.807195548188858,-16.184303300815991],[34.807180881016322,-16.184325971113442],[34.807157685222059,-16.184340822866702],[34.807129754351863,-16.184348105740757],[34.807094829388255,-16.184351381748655],[34.807042229926815,-16.184353600210049],[34.80697167204454,-16.184355608897576],[34.806895030819888,-16.184357548465073],[34.806818389581828,-16.18435948800516],[34.806741748347562,-16.184361427448749],[34.806665107100514,-16.184363366933866],[34.806587770441055,-16.184365574005259],[34.806508347543115,-16.184368583820412],[34.806426838405393,-16.184372396377071],[34.806344633852795,-16.184376476515805],[34.806269484277351,-16.184378664893934],[34.806215786173915,-16.184374611887254],[34.806184690624889,-16.184362616780898],[34.806163241278426,-16.184345044328385],[34.806144096661953,-16.184324352227538],[34.806126977968468,-16.184301951963675],[34.806112473561022,-16.184278402214428],[34.806100291816854,-16.184253705526153],[34.806089849515359,-16.184227866714842],[34.806081440824791,-16.184201165188451],[34.806074487642576,-16.184174169462526],[34.80606782608529,-16.184147171259344],[34.80606172469151,-16.184117631970736],[34.806055518209988,-16.184076538871537],[34.80604854910932,-16.184015724819986],[34.806043482912493,-16.183939676296294],[34.806041580909735,-16.183858810011788],[34.806040842801252,-16.183777651935788],[34.806039809240026,-16.183696073681574],[34.80603788930329,-16.183613234825074],[34.806035470727572,-16.183539700208563],[34.806033919853725,-16.183497440286502],[34.806033532135523,-16.183486875305952]]]]}},
{"type":"Feature","properties":{"AREA":1.018,"PERIMETER":398.855,"ID":"260","CAPTION":"260","STYLE":7,"layer":"nchalodamz","path":"C:\\Users\\Hamza Nkhumbwa\\OneDrive\\Desktop\\projects\\GIS_JOURNEY\\nchalodamz.geojson"},"geometry":{"type":"MultiPolygon","coordinates":[[[[34.865672215684214,-16.220313792452554],[34.866088619276816,-16.220010731117043],[34.86636069827221,-16.219867444347781],[34.866470060666899,-16.21986648258304],[34.866617868308047,-16.220076523983227],[34.86696999154443,-16.22068983873001],[34.867025170868764,-16.220742188618168],[34.866915973978585,-16.220760761035155],[34.866406775308164,-16.220888522347],[34.866151760943147,-16.220908376761727],[34.866042397944661,-16.220909338422597],[34.865931707943716,-16.220769417422961],[34.865709499159372,-16.220401523623096],[34.865672215684214,-16.220313792452554]]]]}},
{"type":"Feature","properties":{"AREA":2.708,"PERIMETER":660.34,"ID":"250","CAPTION":"250","STYLE":7,"layer":"nchalodamz","path":"C:\\Users\\Hamza Nkhumbwa\\OneDrive\\Desktop\\projects\\GIS_JOURNEY\\nchalodamz.geojson"},"geometry":{"type":"MultiPolygon","coordinates":[[[[34.875175793518608,-16.222924624310025],[34.875318943865629,-16.22264157201375],[34.87559035123946,-16.22242783285612],[34.875916606344148,-16.222231220240584],[34.876008075840957,-16.22226563500061],[34.876414078643286,-16.222790396030685],[34.876931616769305,-16.223543121343518],[34.877097998987388,-16.223788213100896],[34.877099000389535,-16.223893874347478],[34.876573911856674,-16.224268364413476],[34.876211199621352,-16.224465300581755],[34.876119729039573,-16.224430886026493],[34.876045985440399,-16.224343479611683],[34.875175793518608,-16.222924624310025]]]]}},
{"type":"Feature","properties":{"AREA":0.353,"PERIMETER":248.548,"ID":"2526","CAPTION":"2526","STYLE":7,"layer":"nchalodamz","path":"C:\\Users\\Hamza Nkhumbwa\\OneDrive\\Desktop\\projects\\GIS_JOURNEY\\nchalodamz.geojson"},"geometry":{"type":"MultiPolygon","coordinates":[[[[34.887673768708112,-16.222197404859617],[34.887876448263398,-16.222424552515157],[34.887914077345727,-16.222547498889966],[34.887714418521199,-16.222637333130105],[34.887424127378225,-16.222780808161854],[34.887297544351391,-16.222887603572172],[34.887188013813528,-16.222870966203597],[34.887077812173381,-16.222783888275284],[34.887058410640059,-16.222660779611804],[34.887166598811234,-16.222536536269697],[34.887438327156637,-16.222358003519552],[34.887673768708112,-16.222197404859617]]]]}},
{"type":"Feature","properties":{"AREA":1.264,"PERIMETER":442.987,"ID":"111","CAPTION":"111","STYLE":7,"layer":"nchalodamz","path":"C:\\Users\\Hamza Nkhumbwa\\OneDrive\\Desktop\\projects\\GIS_JOURNEY\\nchalodamz.geojson"},"geometry":{"type":"MultiPolygon","coordinates":[[[[34.905911226681546,-16.269507099795153],[34.906576545632106,-16.269084516979976],[34.906773113501522,-16.268969919594426],[34.906823156245515,-16.269034561048962],[34.907311349134872,-16.269781181236237],[34.907311910994352,-16.269839350921472],[34.906686602648627,-16.270246507525385],[34.906476640603181,-16.270369904574576],[34.906285369383248,-16.270102579388286],[34.905925205907437,-16.269559047760559],[34.905911226681546,-16.269507099795153]]]]}},
{"type":"Feature","properties":{"AREA":2.386,"PERIMETER":597.318,"ID":"340","CAPTION":"340","STYLE":7,"layer":"nchalodamz","path":"C:\\Users\\Hamza Nkhumbwa\\OneDrive\\Desktop\\projects\\GIS_JOURNEY\\nchalodamz.geojson"},"geometry":{"type":"MultiPolygon","coordinates":[[[[34.889115483573981,-16.189333363968586],[34.889876011701055,-16.18885614073216],[34.890222034685188,-16.188673840283094],[34.890338584316801,-16.188740012983526],[34.891043432150887,-16.189719476848062],[34.890997708271463,-16.189787092639737],[34.889775670201495,-16.19049245339156],[34.889682301778265,-16.190426074402652],[34.889423673141863,-16.190047521899171],[34.889212262479454,-16.189758161474675],[34.889141223888551,-16.189601971616256],[34.889115483573981,-16.189333363968586]]]]}},
{"type":"Feature","properties":{"AREA":2.366,"PERIMETER":818.813,"ID":"330","CAPTION":"330","STYLE":7,"layer":"nchalodamz","path":"C:\\Users\\Hamza Nkhumbwa\\OneDrive\\Desktop\\projects\\GIS_JOURNEY\\nchalodamz.geojson"},"geometry":{"type":"MultiPolygon","coordinates":[[[[34.886969492184562,-16.174000539932408],[34.887156689995464,-16.173868797206261],[34.887291037917826,-16.173841589063439],[34.888080489833719,-16.17496910491607],[34.888277300525125,-16.175299148680537],[34.888419759787652,-16.175468033161788],[34.888963919213957,-16.176220364963267],[34.889053644543871,-16.176398224577294],[34.888992511062916,-16.176449812078769],[34.888546242601066,-16.176734519974907],[34.88836227532655,-16.176829734965331],[34.8882996861254,-16.17672820119984],[34.88765409117093,-16.175491843060225],[34.88692750430743,-16.174069036349465],[34.886969492184562,-16.174000539932408]]]]}},
{"type":"Feature","properties":{"AREA":3.188,"PERIMETER":2965.566,"ID":"580","CAPTION":"580","STYLE":7,"layer":"nchalodamz","path":"C:\\Users\\Hamza Nkhumbwa\\OneDrive\\Desktop\\projects\\GIS_JOURNEY\\nchalodamz.geojson"},"geometry":{"type":"MultiPolygon","coordinates":[[[[34.788227451121017,-16.184099877459911],[34.788411971696505,-16.187038443915746],[34.788574192735666,-16.191886363266363],[34.788818558122166,-16.197077238024363],[34.78878145472018,-16.197344833515114],[34.788661194777262,-16.197154929244434],[34.788380761535123,-16.192346190701933],[34.788071472415503,-16.184330289262434],[34.788068722090905,-16.184024845449734],[34.788227451121017,-16.184099877459911]]]]}},
{"type":"Feature","properties":{"AREA":1.108,"PERIMETER":854.435,"ID":"Object 2195","CAPTION":"Sande dam","STYLE":2,"layer":"nchalodamz","path":"C:\\Users\\Hamza Nkhumbwa\\OneDrive\\Desktop\\projects\\GIS_JOURNEY\\nchalodamz.geojson"},"geometry":{"type":"MultiPolygon","coordinates":[[[[34.87045886208702,-16.128895845875832],[34.870484296653594,-16.128911915874465],[34.870561441436855,-16.129049730488582],[34.870866809830268,-16.129258862169358],[34.871341182619524,-16.129515389790804],[34.871823142144621,-16.129682237832661],[34.872397036774721,-16.129766812357861],[34.873029539648101,-16.129810137912518],[34.873323957237588,-16.129750526472694],[34.873660051279906,-16.129641669406777],[34.873811511752727,-16.129615899291029],[34.87387931261911,-16.129656036231836],[34.873947726304834,-16.12976133996483],[34.873906279493966,-16.12983502282718],[34.873847748365961,-16.129884416189327],[34.873704791541684,-16.129918258222403],[34.873225127461971,-16.129995790291755],[34.872745080135303,-16.130032592050402],[34.872078867483253,-16.129989561602898],[34.871589015303464,-16.129879809253325],[34.871149497620557,-16.129745174519648],[34.870768435891655,-16.129553000321401],[34.870573079977113,-16.129391783014793],[34.870469735857,-16.129156439709909],[34.87045127585268,-16.128985524284399],[34.87045886208702,-16.128895845875832]]]]}},
{"type":"Feature","properties":{"AREA":4.198,"PERIMETER":2696.411,"ID":"240","CAPTION":"240","STYLE":7,"layer":"nchalodamz","path":"C:\\Users\\Hamza Nkhumbwa\\OneDrive\\Desktop\\projects\\GIS_JOURNEY\\nchalodamz.geojson"},"geometry":{"type":"MultiPolygon","coordinates":[[[[34.890551519796588,-16.208317869265244],[34.890804974230861,-16.208178849444515],[34.890889528512815,-16.208139802912367],[34.891046218638905,-16.210321149321803],[34.891135758320146,-16.211398046128405],[34.891195687710685,-16.212338443302357],[34.891117158558863,-16.212415730243762],[34.890908834142444,-16.212537937340365],[34.890835340005559,-16.212549532938702],[34.890628817966274,-16.209892694184557],[34.890506959620495,-16.20839485339615],[34.890551519796588,-16.208317869265244]]],[[[34.890979954690295,-16.212871006169657],[34.891104088652234,-16.212826136286772],[34.891561605601247,-16.218642700277488],[34.891638037163638,-16.220124531164277],[34.891469075902386,-16.22021903604147],[34.8914181211466,-16.220219490174692],[34.891389551814086,-16.220192392140085],[34.891394691203153,-16.220137641099903],[34.891365046780827,-16.219404854949374],[34.891070207416668,-16.21580240529995],[34.890849018480132,-16.213011116419601],[34.890979954690295,-16.212871006169657]]]]}},
{"type":"Feature","properties":{"AREA":0.14,"PERIMETER":240.036,"ID":"470","CAPTION":"470","STYLE":7,"layer":"nchalodamz","path":"C:\\Users\\Hamza Nkhumbwa\\OneDrive\\Desktop\\projects\\GIS_JOURNEY\\nchalodamz.geojson"},"geometry":{"type":"MultiPolygon","coordinates":[[[[34.803560605000285,-16.211125423213542],[34.803575222742992,-16.211105277813051],[34.803610742489866,-16.211104976108562],[34.803685262398069,-16.211161546546499],[34.803825708678083,-16.211306222228618],[34.803915757370468,-16.211442745454761],[34.803942683516084,-16.211473978588916],[34.803949228138315,-16.211542567132259],[34.80397618033151,-16.211576660185667],[34.804003210610396,-16.211619333149464],[34.804010640230906,-16.211785159915788],[34.804005709338718,-16.211893888350254],[34.804012045780553,-16.2119395972055],[34.804027418369223,-16.212002390371826],[34.804012852677722,-16.21202825572384],[34.803983200701637,-16.212022787294561],[34.803947160246629,-16.211965890082912],[34.803907222843122,-16.211806059788369],[34.803864637844676,-16.21168057401],[34.803795230876545,-16.211535294907932],[34.803716918035235,-16.211387231208786],[34.803629803459955,-16.211247822812116],[34.803561047357171,-16.211174042376943],[34.80354300125326,-16.211142733759296],[34.803560605000285,-16.211125423213542]]]]}},
{"type":"Feature","properties":{"AREA":1.518,"PERIMETER":493.264,"ID":"380","CAPTION":"380","STYLE":7,"layer":"nchalodamz","path":"C:\\Users\\Hamza Nkhumbwa\\OneDrive\\Desktop\\projects\\GIS_JOURNEY\\nchalodamz.geojson"},"geometry":{"type":"MultiPolygon","coordinates":[[[[34.870484886882593,-16.2158907023632],[34.870609447418474,-16.215799585887574],[34.870922868603401,-16.215596012355672],[34.871332674251569,-16.215353503856125],[34.871667560030986,-16.215146277961015],[34.871717625800834,-16.215135449728031],[34.871750037490258,-16.215152475252957],[34.871771895979919,-16.215190367439636],[34.872164630780574,-16.215796262496447],[34.872179290432939,-16.215830755868708],[34.872165154099008,-16.215851654086332],[34.872115349841991,-16.215890178236258],[34.871067853978204,-16.216529545957108],[34.871032022383169,-16.216529861795788],[34.870848594815669,-16.216458770984463],[34.870794259109346,-16.216396929064182],[34.870671255169526,-16.216273371547636],[34.870471371237883,-16.215977378149301],[34.870460066252065,-16.215918619195481],[34.870484886882593,-16.2158907023632]]]]}},
{"type":"Feature","properties":{"AREA":1.061,"PERIMETER":3012.529,"ID":"500","CAPTION":"500","STYLE":7,"layer":"nchalodamz","path":"C:\\Users\\Hamza Nkhumbwa\\OneDrive\\Desktop\\projects\\GIS_JOURNEY\\nchalodamz.geojson"},"geometry":{"type":"MultiPolygon","coordinates":[[[[34.852977521343327,-16.181936415203666],[34.852969092905056,-16.181970289667429],[34.852978940382776,-16.182088507365648],[34.852672829021891,-16.182082724001635],[34.849761774872228,-16.182175665503571],[34.849611916387829,-16.18212390578082],[34.849415084365688,-16.18220198213119],[34.849421710641671,-16.182280026209408],[34.849518364711685,-16.182329887257058],[34.849511037310762,-16.182482055685647],[34.849572534430976,-16.185329259291848],[34.849485645899641,-16.185389166892431],[34.849477452881736,-16.185448390054802],[34.849443106705927,-16.185516290877249],[34.849459012870511,-16.186285126305037],[34.849515950510799,-16.188642253643103],[34.84959488351479,-16.188666917683829],[34.849684528881902,-16.188902744978297],[34.849771576224882,-16.188859736356711],[34.852858082871734,-16.18881595777713],[34.852928981961291,-16.188916742806228],[34.8528332701921,-16.18896827847875],[34.84972903671418,-16.188986860348869],[34.849675784772174,-16.188902821057052],[34.849568808682953,-16.188684045101766],[34.849655619789104,-16.188615687704917],[34.849565285934311,-16.185489877324429],[34.849503606033714,-16.185439712253462],[34.849450591408306,-16.18538102154081],[34.849376329463055,-16.183040944611225],[34.849369326452049,-16.182288932000048],[34.849420923787434,-16.182195530372159],[34.849586505290915,-16.182134938543268],[34.849716796684582,-16.182040852519901],[34.852889703556684,-16.181942644793448],[34.852977521343327,-16.181936415203666]]]]}},
{"type":"Feature","properties":{"AREA":17.525,"PERIMETER":1693.682,"ID":"L1","CAPTION":"L1","STYLE":7,"layer":"nchalodamz","path":"C:\\Users\\Hamza Nkhumbwa\\OneDrive\\Desktop\\projects\\GIS_JOURNEY\\nchalodamz.geojson"},"geometry":{"type":"MultiPolygon","coordinates":[[[[34.908082209145263,-16.204342837686561],[34.908453902170606,-16.204159071633846],[34.90867951056287,-16.204041055863922],[34.909079736609151,-16.204050346744545],[34.909960705372491,-16.204119752828269],[34.910786961607187,-16.204047883577918],[34.911439218636545,-16.203913138958811],[34.911864626574477,-16.203767546748864],[34.912116905458554,-16.20364928750908],[34.912276324339196,-16.203583414368357],[34.912436737247049,-16.203620632991843],[34.913484955475248,-16.204435999076662],[34.913739969893115,-16.20460124032379],[34.913874705296323,-16.204741789839222],[34.913598613046624,-16.205156680355572],[34.912861574339935,-16.206181439554403],[34.912202809904443,-16.207025065767187],[34.91192621420803,-16.207388408841908],[34.91148895279067,-16.207688759800948],[34.911196533449456,-16.207794492462046],[34.910863606026517,-16.207849038776057],[34.910583529548475,-16.207851558704014],[34.910477206259628,-16.207891178052041],[34.910383474889727,-16.207853358426735],[34.910289495225861,-16.20778976574843],[34.910113879841958,-16.207559368384835],[34.909464770140382,-16.206637297226823],[34.909383507779019,-16.206509151681217],[34.90820571200571,-16.204702581785373],[34.908056899516552,-16.204484828964954],[34.908028738120748,-16.204330430411446],[34.908082209145263,-16.204342837686561]]]]}},
{"type":"Feature","properties":{"AREA":3.004,"PERIMETER":791.235,"ID":"290","CAPTION":"290","STYLE":7,"layer":"nchalodamz","path":"C:\\Users\\Hamza Nkhumbwa\\OneDrive\\Desktop\\projects\\GIS_JOURNEY\\nchalodamz.geojson"},"geometry":{"type":"MultiPolygon","coordinates":[[[[34.851009200881897,-16.229300976045028],[34.851173089067125,-16.229281933970555],[34.851301838359554,-16.229404093613425],[34.851999002118802,-16.2305963462696],[34.852781181391585,-16.231645497998365],[34.852581329389636,-16.231717691264212],[34.851230313167008,-16.231810435534733],[34.85115375142064,-16.231683666434744],[34.851037291977079,-16.231320576122183],[34.850954603367455,-16.230538468198539],[34.850847782056917,-16.22958417493453],[34.850882098106069,-16.229354920822917],[34.851009200881897,-16.229300976045028]]]]}},
{"type":"Feature","properties":{"AREA":3.218,"PERIMETER":793.708,"ID":"540","CAPTION":"540","STYLE":7,"layer":"nchalodamz","path":"C:\\Users\\Hamza Nkhumbwa\\OneDrive\\Desktop\\projects\\GIS_JOURNEY\\nchalodamz.geojson"},"geometry":{"type":"MultiPolygon","coordinates":[[[[34.83530324603926,-16.191197350905309],[34.835304991729785,-16.191386142149291],[34.835033120408802,-16.192319681937821],[34.835363183842802,-16.193453068073914],[34.834767285561433,-16.19345821302322],[34.834044392275032,-16.193464452197286],[34.834004793540565,-16.193408151969955],[34.833997902175192,-16.192662426328461],[34.833970252519592,-16.191784715247561],[34.833945568968197,-16.19122794942934],[34.83530324603926,-16.191197350905309]]]]}},
{"type":"Feature","properties":{"AREA":2.399,"PERIMETER":653.323,"ID":"140","CAPTION":"140","STYLE":7,"layer":"nchalodamz","path":"C:\\Users\\Hamza Nkhumbwa\\OneDrive\\Desktop\\projects\\GIS_JOURNEY\\nchalodamz.geojson"},"geometry":{"type":"MultiPolygon","coordinates":[[[[34.895912410531785,-16.251302745776144],[34.89599494884088,-16.251328505161453],[34.896612931984272,-16.252283211536461],[34.896996851001482,-16.252829920667754],[34.897080915673726,-16.25301465361137],[34.896154198973434,-16.253632403908572],[34.896016802869937,-16.253607135692036],[34.895571342701707,-16.252922174724343],[34.895597500664302,-16.252789450767828],[34.895677244752257,-16.252523757418153],[34.895454262201611,-16.252154780765011],[34.895615782703004,-16.251835359724712],[34.895912410531785,-16.251302745776144]]]]}},
{"type":"Feature","properties":{"AREA":2.344,"PERIMETER":632.877,"ID":"350","CAPTION":"350","STYLE":7,"layer":"nchalodamz","path":"C:\\Users\\Hamza Nkhumbwa\\OneDrive\\Desktop\\projects\\GIS_JOURNEY\\nchalodamz.geojson"},"geometry":{"type":"MultiPolygon","coordinates":[[[[34.874126123083244,-16.173801858202598],[34.874527456847915,-16.173538156302115],[34.875169834053331,-16.173142246449267],[34.875356794615257,-16.172984498888379],[34.876465143348931,-16.173469043130527],[34.876439206861249,-16.173573338280551],[34.876278920279766,-16.173704834914091],[34.874860795929763,-16.174627918079924],[34.874617785942881,-16.174552009464772],[34.874289846679744,-16.174034565831615],[34.874126123083244,-16.173801858202598]]]]}},
{"type":"Feature","properties":{"AREA":2.65,"PERIMETER":775.939,"ID":"351","CAPTION":"351","STYLE":7,"layer":"nchalodamz","path":"C:\\Users\\Hamza Nkhumbwa\\OneDrive\\Desktop\\projects\\GIS_JOURNEY\\nchalodamz.geojson"},"geometry":{"type":"MultiPolygon","coordinates":[[[[34.878057075711347,-16.179542879959026],[34.878431740309928,-16.179305422247246],[34.878592275415052,-16.179199938137742],[34.878646607207664,-16.179251491435469],[34.880175542972118,-16.181501422396163],[34.880149115368141,-16.181553689140703],[34.879587238904186,-16.181922887434752],[34.879424979091986,-16.181846271793422],[34.877977299800378,-16.179647650685215],[34.878057075711347,-16.179542879959026]]]]}},
{"type":"Feature","properties":{"AREA":2.401,"PERIMETER":604.44,"ID":"352","CAPTION":"352","STYLE":7,"layer":"nchalodamz","path":"C:\\Users\\Hamza Nkhumbwa\\OneDrive\\Desktop\\projects\\GIS_JOURNEY\\nchalodamz.geojson"},"geometry":{"type":"MultiPolygon","coordinates":[[[[34.882672843259584,-16.193378214180001],[34.883561129898318,-16.192810322179014],[34.883721119012172,-16.192720068981448],[34.883791891807974,-16.192696261643984],[34.883853557217343,-16.192723464591978],[34.884582728590338,-16.193818229025332],[34.884578390692369,-16.193859392144375],[34.884517355231232,-16.193905627482998],[34.88394566027862,-16.194240711224584],[34.883461588139212,-16.194536241807619],[34.883374508112766,-16.194564615007188],[34.883317246568673,-16.194510289476476],[34.883230964055457,-16.194387679820604],[34.882645643145935,-16.19350182933815],[34.882640264561168,-16.193433335755962],[34.882672843259584,-16.193378214180001]]]]}},
{"type":"Feature","properties":{"AREA":3.491,"PERIMETER":735.834,"ID":"371","CAPTION":"371","STYLE":7,"layer":"nchalodamz","path":"C:\\Users\\Hamza Nkhumbwa\\OneDrive\\Desktop\\projects\\GIS_JOURNEY\\nchalodamz.geojson"},"geometry":{"type":"MultiPolygon","coordinates":[[[[34.862770282765894,-16.190675135715214],[34.862699543510068,-16.190563515998512],[34.862614825026398,-16.190447529254065],[34.862548942296392,-16.190358314891764],[34.862482975382513,-16.190260122063066],[34.862435970536836,-16.190202169271803],[34.862360543815548,-16.190086100985752],[34.862289847139998,-16.18997897033535],[34.862228652556425,-16.189894204325924],[34.862153099743544,-16.189764668241978],[34.862082613866519,-16.189679983634306],[34.862016731659857,-16.189590769049147],[34.861968587422091,-16.189510378187354],[34.861967955789929,-16.189443039973099],[34.861976910342037,-16.18940704489189],[34.86198594910001,-16.189380028184015],[34.862050567907815,-16.189334566365979],[34.862110667307491,-16.189302612852501],[34.862137385757777,-16.189287632542069],[34.863113054976807,-16.188683247267207],[34.863385591459348,-16.188514744178093],[34.863432090430912,-16.188518826166934],[34.863488470744329,-16.188585675681601],[34.863870250717682,-16.189165974243966],[34.864039687900664,-16.189397946811365],[34.864247050041712,-16.189710398944719],[34.864347056971162,-16.189871146750573],[34.864319562156304,-16.18991179403978],[34.864291856518264,-16.189929995354735],[34.863926741988045,-16.190135228079118],[34.863668141148246,-16.190303609903715],[34.863012198111747,-16.190708932292129],[34.862929122597222,-16.190768024899509],[34.862873500142292,-16.190781981086477],[34.862840853576365,-16.190768798456421],[34.862770282765894,-16.190675135715214]]]]}},
{"type":"Feature","properties":{"AREA":4.244,"PERIMETER":1134.944,"ID":"372","CAPTION":"372","STYLE":7,"layer":"nchalodamz","path":"C:\\Users\\Hamza Nkhumbwa\\OneDrive\\Desktop\\projects\\GIS_JOURNEY\\nchalodamz.geojson"},"geometry":{"type":"MultiPolygon","coordinates":[[[[34.872974605418975,-16.206031233418781],[34.872983312815876,-16.205938565427878],[34.873391223537332,-16.205499789525874],[34.873846639552696,-16.204946626785624],[34.874252673731874,-16.204381096279509],[34.874319921481764,-16.204399021123361],[34.874396663559075,-16.204407603013031],[34.874452404275786,-16.204221928960642],[34.874652222010255,-16.204072019792861],[34.87498635962185,-16.203939443094175],[34.875320671841926,-16.203825382523338],[34.875416051957977,-16.203778244916577],[34.875405769754458,-16.203704262875789],[34.875462297351575,-16.203601913607038],[34.875519612897584,-16.203582889334911],[34.87556795956165,-16.203628757979903],[34.875530332909129,-16.203703163090239],[34.875530770696365,-16.20374945474407],[34.875626763651233,-16.203767125377212],[34.875840803072656,-16.204107822186238],[34.875899082058844,-16.204190639455504],[34.875832622464287,-16.204256040105356],[34.875157041495989,-16.204761996933744],[34.874900520327408,-16.204995739109606],[34.874777094195572,-16.205117197003474],[34.874644786265236,-16.205312806069067],[34.87435352433755,-16.205926477775819],[34.874100851000108,-16.206567586098753],[34.873998337398419,-16.206874041364607],[34.874057491688575,-16.20704944247235],[34.874145129433529,-16.207196814889048],[34.874050710001889,-16.20734579384715],[34.873917437513789,-16.207439560914644],[34.873820830318714,-16.207357081314566],[34.873646605117699,-16.207173436266824],[34.873597470505423,-16.207044242172156],[34.87363501092829,-16.206960578973259],[34.873509133374313,-16.206822802712018],[34.872974605418975,-16.206031233418781]]]]}},
{"type":"Feature","properties":{"AREA":1.373,"PERIMETER":477.706,"ID":"115","CAPTION":"115","STYLE":7,"layer":"nchalodamz","path":"C:\\Users\\Hamza Nkhumbwa\\OneDrive\\Desktop\\projects\\GIS_JOURNEY\\nchalodamz.geojson"},"geometry":{"type":"MultiPolygon","coordinates":[[[[34.884547113904226,-16.28219975107093],[34.885069135359295,-16.281783174905879],[34.88561945330374,-16.281352614462875],[34.885704349522797,-16.281310665241399],[34.885746994430399,-16.281310285050388],[34.885978108366501,-16.281692686955783],[34.88609379692366,-16.281897617459734],[34.886108536903194,-16.281952409236904],[34.886094584370412,-16.281979995231609],[34.8860522018038,-16.2820078347427],[34.885431463992575,-16.282507678164873],[34.885262195158269,-16.28264649509903],[34.88506436473741,-16.282771835692792],[34.884950644079503,-16.282772849238039],[34.884662801428071,-16.282404682473693],[34.884576461963334,-16.282295605292681],[34.884547113904226,-16.28219975107093]]]]}},
{"type":"Feature","properties":{"AREA":2.915,"PERIMETER":703.935,"ID":"390","CAPTION":"390","STYLE":10,"layer":"nchalodamz","path":"C:\\Users\\Hamza Nkhumbwa\\OneDrive\\Desktop\\projects\\GIS_JOURNEY\\nchalodamz.geojson"},"geometry":{"type":"MultiPolygon","coordinates":[[[[34.850099117360109,-16.202116103792392],[34.850225710908234,-16.202009329599161],[34.85053406721439,-16.201848136291204],[34.851813638616157,-16.202242060789075],[34.85207274368495,-16.202662488231354],[34.852037443541725,-16.202786079490242],[34.851384279208794,-16.203108787788473],[34.850442623039676,-16.203768634355473],[34.850188612543455,-16.203894130556872],[34.850133935249062,-16.203894606796641],[34.850150518108016,-16.203718342932028],[34.850067594188971,-16.202644736624283],[34.850099117360109,-16.202116103792392]]]]}},
{"type":"Feature","properties":{"AREA":2.045,"PERIMETER":579.879,"ID":"261","CAPTION":"261","STYLE":10,"layer":"nchalodamz","path":"C:\\Users\\Hamza Nkhumbwa\\OneDrive\\Desktop\\projects\\GIS_JOURNEY\\nchalodamz.geojson"},"geometry":{"type":"MultiPolygon","coordinates":[[[[34.872462215822168,-16.232828760257775],[34.873114931261519,-16.232453150567977],[34.873223800243203,-16.23239935389795],[34.873388853552683,-16.232503566226089],[34.873628486555127,-16.232783236557154],[34.874275810785356,-16.233763771566576],[34.874167274937378,-16.233852789260933],[34.873387126024348,-16.234247139903299],[34.873313712722705,-16.234194953329254],[34.872462215822168,-16.232828760257775]]]]}},
{"type":"Feature","properties":{"AREA":0.732,"PERIMETER":448.951,"ID":"411","CAPTION":"411","STYLE":7,"layer":"nchalodamz","path":"C:\\Users\\Hamza Nkhumbwa\\OneDrive\\Desktop\\projects\\GIS_JOURNEY\\nchalodamz.geojson"},"geometry":{"type":"MultiPolygon","coordinates":[[[[34.848610570645029,-16.242473290703696],[34.850075859718515,-16.243459786947014],[34.84993695540755,-16.24375378210836],[34.849904342655051,-16.243789073427209],[34.849894460620391,-16.243789159676126],[34.848657853259986,-16.242950241885804],[34.848617908921369,-16.242906036358562],[34.848610570645029,-16.242473290703696]]]]}},
{"type":"Feature","properties":{"AREA":0.0,"PERIMETER":0.0,"ID":null,"CAPTION":null,"STYLE":0,"layer":"nchalodamz","path":"C:\\Users\\Hamza Nkhumbwa\\OneDrive\\Desktop\\projects\\GIS_JOURNEY\\nchalodamz.geojson"},"geometry":{"type":"MultiPolygon","coordinates":[[[[34.864982695276062,-16.373039476089403],[34.865012085193122,-16.373000031467008],[34.865073769351916,-16.372942014732498],[34.865138233663288,-16.37289181018301],[34.865200116459228,-16.372854689843926],[34.865256712075862,-16.37283067776411],[34.86531608786359,-16.372814477936185],[34.865370275851092,-16.372821834443705],[34.865424538363435,-16.372837027181649],[34.865470882588255,-16.372873188341277],[34.865555702493118,-16.372971703065129],[34.865714345940212,-16.373150543938706],[34.865971711123528,-16.37346696009697],[34.866089471904566,-16.373614815744386],[34.866152547575538,-16.373703073875106],[34.866185686789855,-16.373773311450048],[34.866191992843838,-16.373867297526072],[34.866152128251848,-16.37394340702296],[34.866074458537376,-16.374027688565825],[34.865983160912094,-16.374101641829995],[34.865880767108202,-16.374146958429034],[34.865791504151929,-16.374150362074907],[34.865718177175168,-16.374122277069247],[34.865641970605139,-16.374075931707459],[34.86553272438713,-16.373969796765508],[34.865393119520455,-16.373801236156915],[34.865204241277411,-16.373573029757061],[34.865029140254251,-16.37337082382232],[34.864949458571282,-16.373243528254598],[34.864937642468256,-16.373139141877875],[34.864958766371139,-16.373084096830578],[34.864982695276062,-16.373039476089403]]]]}},
{"type":"Feature","properties":{"AREA":0.0,"PERIMETER":0.0,"ID":null,"CAPTION":null,"STYLE":0,"layer":"nchalodamz","path":"C:\\Users\\Hamza Nkhumbwa\\OneDrive\\Desktop\\projects\\GIS_JOURNEY\\nchalodamz.geojson"},"geometry":{"type":"MultiPolygon","coordinates":[[[[34.864548242704828,-16.397771593442446],[34.864673911233581,-16.397746170978294],[34.864757005189006,-16.397745433782045],[34.864840261151237,-16.397761710457811],[34.864892918765072,-16.397833379830168],[34.864940337901608,-16.397957714610623],[34.865020965268954,-16.398226814243525],[34.865101384556461,-16.398474038790582],[34.865184530441752,-16.398743115958244],[34.865226115055286,-16.398878869816716],[34.865232146579807,-16.39898333925181],[34.865184998836519,-16.399056680631983],[34.865087282396054,-16.399108593897708],[34.865004535115261,-16.399145789682624],[34.864926384023171,-16.399136760170226],[34.864865905342171,-16.39913243528423],[34.86479082777538,-16.399181716739218],[34.86470579381826,-16.39924324038331],[34.864623115817864,-16.399287727753467],[34.864575227186769,-16.399283291086466],[34.864534198312001,-16.39920587057496],[34.864505782704676,-16.399130768887339],[34.864422614358048,-16.398859260783688],[34.864345014513887,-16.398643610865015],[34.864272335190805,-16.398415763443683],[34.864182122566298,-16.398197794564556],[34.864120001509328,-16.398020899514929],[34.864083546424609,-16.397894822920648],[34.864083037448772,-16.397841350517474],[34.864138178973697,-16.397814123043453],[34.864226100745476,-16.397791466351137],[34.86429408674325,-16.39779086333618],[34.864369834980629,-16.397812068329966],[34.864430428953042,-16.397828546253461],[34.864548242704828,-16.397771593442446]]]]}},
{"type":"Feature","properties":{"AREA":0.0,"PERIMETER":0.0,"ID":null,"CAPTION":null,"STYLE":0,"layer":"nchalodamz","path":"C:\\Users\\Hamza Nkhumbwa\\OneDrive\\Desktop\\projects\\GIS_JOURNEY\\nchalodamz.geojson"},"geometry":{"type":"MultiPolygon","coordinates":[[[[34.867127862548756,-16.403770517815477],[34.867173318461802,-16.403723472603506],[34.86723335828799,-16.403685626022654],[34.86730563291222,-16.403663995169456],[34.867389942172196,-16.403637593181752],[34.86756365919512,-16.403612728582559],[34.867727757357436,-16.403592613499779],[34.867891833222536,-16.403570166413179],[34.868034255625616,-16.403557239949144],[34.868188734858322,-16.403541874114769],[34.868333573019335,-16.403528925972381],[34.868471386243741,-16.403539360824865],[34.868585397358089,-16.403587320269867],[34.868704752125637,-16.403688869523219],[34.868758389999329,-16.403739697800571],[34.868777894685671,-16.40375818086277],[34.868783416399353,-16.403830425618089],[34.868788893608333,-16.40389800668575],[34.868779742293441,-16.403951725545294],[34.868743994588847,-16.404003348810779],[34.868676685265356,-16.404038928381855],[34.868582735012794,-16.404067748702065],[34.868442794924754,-16.404087649654535],[34.868211209007107,-16.404124689874589],[34.868042278831361,-16.40414484840127],[34.867895046598491,-16.404160149677846],[34.867564455758995,-16.404202733494092],[34.867323072633233,-16.404225867449377],[34.867192662101814,-16.404231690570469],[34.867115110757133,-16.404206727020554],[34.867071003016477,-16.40414182121431],[34.867038529678446,-16.404030170666857],[34.867054395214815,-16.403920422725548],[34.86710882504719,-16.403801003788576],[34.867127862548756,-16.403770517815477]]]]}},
{"type":"Feature","properties":{"AREA":0.0,"PERIMETER":0.0,"ID":null,"CAPTION":null,"STYLE":0,"layer":"nchalodamz","path":"C:\\Users\\Hamza Nkhumbwa\\OneDrive\\Desktop\\projects\\GIS_JOURNEY\\nchalodamz.geojson"},"geometry":{"type":"MultiPolygon","coordinates":[[[[34.875913907270913,-16.399842774222495],[34.876237097059295,-16.399595934445287],[34.876602405207997,-16.399274291363433],[34.876899893764779,-16.399027680279563],[34.87720170442531,-16.398785165056861],[34.87741979216409,-16.398746003573887],[34.877578747137633,-16.398794201513077],[34.877686501693809,-16.398863530793488],[34.877730166493812,-16.398949971972073],[34.877730800813694,-16.399016123425518],[34.877680234593498,-16.399103406490827],[34.87748915407559,-16.399278776088124],[34.876991819979239,-16.399680161370899],[34.876554172029607,-16.400052068951176],[34.876116680843857,-16.400440513724853],[34.875976085735971,-16.400520330467629],[34.875907711915893,-16.400537480108092],[34.875817446441168,-16.400505207254678],[34.875730870158279,-16.400410879009335],[34.875669280648019,-16.400241900881447],[34.875701843716385,-16.400063812759328],[34.87584585053321,-16.399892999579578],[34.875913907270913,-16.399842774222495]]]]}},
{"type":"Feature","properties":{"AREA":0.0,"PERIMETER":0.0,"ID":null,"CAPTION":null,"STYLE":0,"layer":"nchalodamz","path":"C:\\Users\\Hamza Nkhumbwa\\OneDrive\\Desktop\\projects\\GIS_JOURNEY\\nchalodamz.geojson"},"geometry":{"type":"MultiPolygon","coordinates":[[[[34.876998798186051,-16.399961267027383],[34.877274989812264,-16.399727249975232],[34.877495934699482,-16.399539209265924],[34.877627684421604,-16.399430526840106],[34.877708629850879,-16.399384320628059],[34.877798419239788,-16.399366979106965],[34.877879959333058,-16.399382789815867],[34.877966417089731,-16.399464713728523],[34.87803637640431,-16.399612942138646],[34.878037922882868,-16.399774186336014],[34.877936988632797,-16.399969424862565],[34.877699307227623,-16.40019896377073],[34.877461109915643,-16.400374754405899],[34.877299297391183,-16.400475435702109],[34.877179920973404,-16.400534389555052],[34.876999984247661,-16.400531861947826],[34.876870971119203,-16.400479261535562],[34.876775986384061,-16.400401548149741],[34.876723953208241,-16.400335855682762],[34.876727443922746,-16.400253128008945],[34.876769642463145,-16.400186594016965],[34.876909642497083,-16.400044759719627],[34.876998798186051,-16.399961267027383]]]]}},
{"type":"Feature","properties":{"AREA":0.0,"PERIMETER":0.0,"ID":null,"CAPTION":null,"STYLE":0,"layer":"nchalodamz","path":"C:\\Users\\Hamza Nkhumbwa\\OneDrive\\Desktop\\projects\\GIS_JOURNEY\\nchalodamz.geojson"},"geometry":{"type":"MultiPolygon","coordinates":[[[[34.884506274104609,-16.392662299552761],[34.884616241931269,-16.392516595450711],[34.884760832106608,-16.392407794203951],[34.884859183542069,-16.392390373258628],[34.884948252772098,-16.392298608947172],[34.884981562551978,-16.392199074847198],[34.88504529131945,-16.392144750967567],[34.885109577014944,-16.39214830938522],[34.885186115115282,-16.392089735739706],[34.885198526663117,-16.392044141568118],[34.88525821097803,-16.392014662742813],[34.885412122515582,-16.391984338932723],[34.885592448597876,-16.392028204639917],[34.885700002564398,-16.392076857696331],[34.885769645814079,-16.392192007700256],[34.885787733202989,-16.392291080885393],[34.885728924435227,-16.392411517746929],[34.885473850520412,-16.392612276289736],[34.885384582474373,-16.392683368560402],[34.885214532775109,-16.392817207361876],[34.88493423668227,-16.393067809135164],[34.884810982022465,-16.393168149638505],[34.884716754178534,-16.393168994398049],[34.884613602177069,-16.393132705840376],[34.884540153379376,-16.393067207243508],[34.884457263489196,-16.392910827451036],[34.884468879813539,-16.392782544258861],[34.884506274104609,-16.392662299552761]]]]}},
{"type":"Feature","properties":{"AREA":0.0,"PERIMETER":0.0,"ID":null,"CAPTION":null,"STYLE":0,"layer":"nchalodamz","path":"C:\\Users\\Hamza Nkhumbwa\\OneDrive\\Desktop\\projects\\GIS_JOURNEY\\nchalodamz.geojson"},"geometry":{"type":"MultiPolygon","coordinates":[[[[34.885284772904164,-16.392994374274277],[34.885543573449262,-16.392735695187589],[34.885747847589201,-16.392597414436786],[34.885815859300628,-16.392543051848278],[34.885892874910581,-16.392534091409448],[34.885970009926353,-16.392537534289218],[34.886064914074673,-16.392606974692917],[34.886134438329357,-16.392709721114688],[34.88617425979006,-16.39284167769544],[34.886158679989677,-16.393003074944961],[34.886100149944014,-16.393152453107302],[34.885921773074159,-16.393311176009259],[34.885649844541696,-16.393541029614894],[34.885449772924424,-16.393671003125036],[34.885287691815002,-16.393742748414798],[34.885120651099449,-16.393744246343797],[34.884983194180656,-16.393704130808715],[34.88488400669462,-16.393634728409289],[34.884852911150013,-16.393519232522458],[34.884903552388145,-16.393440217139759],[34.884932658791556,-16.393348990338342],[34.88494074757093,-16.393299300123712],[34.885008879118395,-16.39325734110329],[34.885012724578374,-16.393211823741815],[34.885102032773304,-16.393144866044],[34.885212557370622,-16.393057043959228],[34.885284772904164,-16.392994374274277]]]]}},
{"type":"Feature","properties":{"AREA":0.0,"PERIMETER":0.0,"ID":null,"CAPTION":null,"STYLE":0,"layer":"nchalodamz","path":"C:\\Users\\Hamza Nkhumbwa\\OneDrive\\Desktop\\projects\\GIS_JOURNEY\\nchalodamz.geojson"},"geometry":{"type":"MultiPolygon","coordinates":[[[[34.893971880251513,-16.387264032509368],[34.894078274234339,-16.387192782774772],[34.894154927407968,-16.387146609681587],[34.89446205927721,-16.387015664593701],[34.894692377909017,-16.386914354739574],[34.894850366334367,-16.386863313770707],[34.894918813116909,-16.386854427473939],[34.895008794437011,-16.386857751482708],[34.895124993020886,-16.386914591531919],[34.895202885266755,-16.386996585386008],[34.895246554160721,-16.387083022485953],[34.89524347076037,-16.387207093942351],[34.895201601078512,-16.38730670627486],[34.8950181547212,-16.387382785602917],[34.894826022405226,-16.387446538745948],[34.894723751646474,-16.387501212467551],[34.89468564493184,-16.387547038484382],[34.894612874984674,-16.387551828887077],[34.894472097626199,-16.387610984267646],[34.894237615028189,-16.387724735842827],[34.8940841484308,-16.387800544447931],[34.893998569476423,-16.387809584807346],[34.893890936472395,-16.387752667087078],[34.893829816551076,-16.387633308490727],[34.893840907330457,-16.387451277710326],[34.893920764764736,-16.387293436391619],[34.893971880251513,-16.387264032509368]]]]}},
{"type":"Feature","properties":{"AREA":0.0,"PERIMETER":0.0,"ID":null,"CAPTION":null,"STYLE":0,"layer":"nchalodamz","path":"C:\\Users\\Hamza Nkhumbwa\\OneDrive\\Desktop\\projects\\GIS_JOURNEY\\nchalodamz.geojson"},"geometry":{"type":"MultiPolygon","coordinates":[[[[34.894960832289691,-16.387656198369392],[34.895233860716431,-16.387542098587041],[34.895353223073748,-16.387483135799229],[34.895447127689842,-16.387449211136133],[34.895630373941842,-16.38735245923797],[34.895848083399812,-16.387276070522617],[34.895997425858219,-16.387216837060873],[34.896083124378876,-16.387220199203547],[34.896147928315074,-16.387277502006288],[34.896187394762151,-16.387372246258593],[34.896227061272008,-16.38748766269833],[34.896185672139595,-16.387636888292199],[34.896126751167152,-16.387744924089667],[34.896016114824008,-16.38782034778389],[34.895730357765075,-16.387946967682907],[34.895389121945755,-16.388094761215211],[34.895231092761875,-16.388141668175596],[34.895128302000948,-16.388142594546622],[34.895012502456474,-16.388127098938931],[34.8949091119974,-16.388066008766579],[34.894826896473475,-16.3879799189361],[34.894800159395317,-16.387872655249225],[34.894825017544235,-16.387785600688375],[34.894892705059185,-16.387698160142389],[34.894960832289691,-16.387656198369392]]]]}},
{"type":"Feature","properties":{"AREA":0.0,"PERIMETER":0.0,"ID":null,"CAPTION":null,"STYLE":0,"layer":"nchalodamz","path":"C:\\Users\\Hamza Nkhumbwa\\OneDrive\\Desktop\\projects\\GIS_JOURNEY\\nchalodamz.geojson"},"geometry":{"type":"MultiPolygon","coordinates":[[[[34.905367282192032,-16.382166293087707],[34.905546194936292,-16.382065437988544],[34.905785347854973,-16.381992980324988],[34.905994279891985,-16.381895987682515],[34.906143694951183,-16.381845016545832],[34.906267935869387,-16.381848025495039],[34.906392739661982,-16.381908916093039],[34.906496049183204,-16.381961731808431],[34.906548126155968,-16.382031550949559],[34.90658755585978,-16.382122158472658],[34.906575431274717,-16.382196694251945],[34.906537489314545,-16.382259059652707],[34.906452436601874,-16.382321852018137],[34.906320072058364,-16.382364399345747],[34.906149443708031,-16.382436236640302],[34.905987340623106,-16.382503861792898],[34.905902046430207,-16.382541847604553],[34.905739862758701,-16.38260120377377],[34.90547133229741,-16.382735949120026],[34.905377552649568,-16.382782281073919],[34.905317593365744,-16.382782824182673],[34.905240221577081,-16.38275458159633],[34.905158044633083,-16.382672630415346],[34.905148072676695,-16.382528003764502],[34.905180928731369,-16.382382989153395],[34.905243965216847,-16.382258375044074],[34.905337463376355,-16.382183102257944],[34.905367282192032,-16.382166293087707]]]]}},
{"type":"Feature","properties":{"AREA":0.0,"PERIMETER":0.0,"ID":null,"CAPTION":null,"STYLE":0,"layer":"nchalodamz","path":"C:\\Users\\Hamza Nkhumbwa\\OneDrive\\Desktop\\projects\\GIS_JOURNEY\\nchalodamz.geojson"},"geometry":{"type":"MultiPolygon","coordinates":[[[[34.906036742800964,-16.3827390961122],[34.906348181203974,-16.382612230761566],[34.906484466805651,-16.382532435022991],[34.906625155727895,-16.382465003528658],[34.90679994602943,-16.382380723833855],[34.906983583280471,-16.38232530710458],[34.907137361560288,-16.382282565303242],[34.907210168992897,-16.382281905201815],[34.907300590294113,-16.382330702565319],[34.90733989972567,-16.382408906766734],[34.907353794019187,-16.382516284769149],[34.907333868453456,-16.382669451852962],[34.907258065309819,-16.382802451689649],[34.907058141184393,-16.382944846448208],[34.906798016120959,-16.38306297817169],[34.906490900431152,-16.383193939813861],[34.906285687300105,-16.383233012595195],[34.906131023571433,-16.383184796981411],[34.906010300791159,-16.383103195483006],[34.905971433898252,-16.383070469513751],[34.905945455632882,-16.383041761522119],[34.905944691850003,-16.382963207768153],[34.905931160054429,-16.382893039308726],[34.905960456314268,-16.382822482721991],[34.906036742800964,-16.3827390961122]]]]}},
{"type":"Feature","properties":{"AREA":0.0,"PERIMETER":0.0,"ID":null,"CAPTION":null,"STYLE":0,"layer":"nchalodamz","path":"C:\\Users\\Hamza Nkhumbwa\\OneDrive\\Desktop\\projects\\GIS_JOURNEY\\nchalodamz.geojson"},"geometry":{"type":"MultiPolygon","coordinates":[[[[34.914883227013505,-16.370196600048942],[34.915236975726003,-16.37045800606446],[34.916099535078459,-16.371070369049551],[34.916974664426313,-16.371653670135277],[34.916974987642917,-16.371686745192903],[34.916408520530602,-16.372010279685174],[34.916170273172497,-16.372173704240012],[34.916072339974292,-16.372232482416589],[34.916020707084037,-16.372208143952935],[34.915398045322121,-16.3716018676784],[34.915272600411932,-16.371474831788493],[34.915237613576224,-16.371400724583228],[34.9148450476279,-16.370234160232126],[34.914844644093137,-16.370192816283744],[34.914883227013505,-16.370196600048942]]]]}}
]
}
