{
"type": "FeatureCollection",
"name": "pumps",
"crs": { "type": "name", "properties": { "name": "urn:ogc:def:crs:OGC:1.3:CRS84" } },
"features": [
{"type":"Feature","properties":{"AREA":0.0,"PERIMETER":0.0,"ID":"PS1","CAPTION":"PS1","STYLE":0,"Theft":null},"geometry":{"type":"Point","coordinates":[34.929420875922411,-16.374284074300913]}},
{"type":"Feature","properties":{"AREA":0.0,"PERIMETER":0.0,"ID":"PS2","CAPTION":"PS2","STYLE":0,"Theft":null},"geometry":{"type":"Point","coordinates":[34.919254771700366,-16.376732006073073]}},
{"type":"Feature","properties":{"AREA":0.0,"PERIMETER":0.0,"ID":"PS3","CAPTION":"PS3","STYLE":0,"Theft":"8m Cable"},"geometry":{"type":"Point","coordinates":[34.909208990087812,-16.381215824012084]}},
{"type":"Feature","properties":{"AREA":0.0,"PERIMETER":0.0,"ID":"PS4","CAPTION":"PS4","STYLE":0,"Theft":null},"geometry":{"type":"Point","coordinates":[34.897787240382932,-16.386287809367978]}},
{"type":"Feature","properties":{"AREA":0.0,"PERIMETER":0.0,"ID":"PS5","CAPTION":"PS5","STYLE":0,"Theft":null},"geometry":{"type":"Point","coordinates":[34.887444422045164,-16.391075113451887]}},
{"type":"Feature","properties":{"AREA":0.0,"PERIMETER":0.0,"ID":"PS6","CAPTION":"PS6","STYLE":0,"Theft":null},"geometry":{"type":"Point","coordinates":[34.879117282386574,-16.398063479342245]}},
{"type":"Feature","properties":{"AREA":0.0,"PERIMETER":0.0,"ID":"PS7","CAPTION":"PS7","STYLE":0,"Theft":null},"geometry":{"type":"Point","coordinates":[34.871007878839514,-16.403889303610761]}},
{"type":"Feature","properties":{"AREA":0.0,"PERIMETER":0.0,"ID":"RIVERSIDE 1","CAPTION":"RS1","STYLE":0,"Theft":null},"geometry":{"type":"Point","coordinates":[34.920377761289842,-16.270865173451732]}},
{"type":"Feature","properties":{"AREA":0.0,"PERIMETER":0.0,"ID":"RIVERSIDE 4","CAPTION":"RS 4","STYLE":0,"Theft":null},"geometry":{"type":"Point","coordinates":[34.92040842496656,-16.270833742563887]}},
{"type":"Feature","properties":{"AREA":0.0,"PERIMETER":0.0,"ID":"RIVERSIDE 3","CAPTION":"RS 3","STYLE":0,"Theft":null},"geometry":{"type":"Point","coordinates":[34.920434502612146,-16.27080182225615]}},
{"type":"Feature","properties":{"AREA":0.0,"PERIMETER":0.0,"ID":"RIVERSIDE 2","CAPTION":"RS 2","STYLE":0,"Theft":null},"geometry":{"type":"Point","coordinates":[34.920458607697469,-16.270774344991661]}},
{"type":"Feature","properties":{"AREA":0.0,"PERIMETER":0.0,"ID":"COOLING POND PUMP A","CAPTION":null,"STYLE":0,"Theft":"32m Cable"},"geometry":{"type":"Point","coordinates":[34.895016500133231,-16.252965017013857]}},
{"type":"Feature","properties":{"AREA":0.0,"PERIMETER":0.0,"ID":"COOLING POND PUMP B","CAPTION":null,"STYLE":0,"Theft":null},"geometry":{"type":"Point","coordinates":[34.895057607027681,-16.2530126436701]}},
{"type":"Feature","properties":{"AREA":0.0,"PERIMETER":0.0,"ID":"Z BOOSTER LIFT B","CAPTION":"BOOSTER","STYLE":0,"Theft":null},"geometry":{"type":"Point","coordinates":[34.890226684998204,-16.245972278190425]}},
{"type":"Feature","properties":{"AREA":0.0,"PERIMETER":0.0,"ID":"Z BOOSTER LIFT A","CAPTION":null,"STYLE":0,"Theft":null},"geometry":{"type":"Point","coordinates":[34.890261976476175,-16.245953348942351]}},
{"type":"Feature","properties":{"AREA":0.0,"PERIMETER":0.0,"ID":"M1/1","CAPTION":"M1/1","STYLE":0,"Theft":null},"geometry":{"type":"Point","coordinates":[34.91063488029048,-16.20872614103553]}},
{"type":"Feature","properties":{"AREA":0.0,"PERIMETER":0.0,"ID":"M1/2","CAPTION":"M1/2","STYLE":0,"Theft":null},"geometry":{"type":"Point","coordinates":[34.910655937766812,-16.20875407197353]}},
{"type":"Feature","properties":{"AREA":0.0,"PERIMETER":0.0,"ID":"M1/3","CAPTION":"M1/3","STYLE":0,"Theft":null},"geometry":{"type":"Point","coordinates":[34.910678681395133,-16.208784398118553]}},
{"type":"Feature","properties":{"AREA":0.0,"PERIMETER":0.0,"ID":"M1/4","CAPTION":"M1/4","STYLE":0,"Theft":null},"geometry":{"type":"Point","coordinates":[34.910908590183951,-16.208826518614515]}},
{"type":"Feature","properties":{"AREA":0.0,"PERIMETER":0.0,"ID":"M1/5","CAPTION":"M1/5","STYLE":0,"Theft":null},"geometry":{"type":"Point","coordinates":[34.910931008622313,-16.208823103151893]}},
{"type":"Feature","properties":{"AREA":0.0,"PERIMETER":0.0,"ID":"M1/6","CAPTION":"M1/6","STYLE":0,"Theft":null},"geometry":{"type":"Point","coordinates":[34.91095174091037,-16.208817292479733]}},
{"type":"Feature","properties":{"AREA":0.0,"PERIMETER":0.0,"ID":"L1A","CAPTION":"L1A","STYLE":0,"Theft":"12m Cable"},"geometry":{"type":"Point","coordinates":[34.910568208492201,-16.208279224025198]}},
{"type":"Feature","properties":{"AREA":0.0,"PERIMETER":0.0,"ID":"L1B","CAPTION":"L1B","STYLE":0,"Theft":null},"geometry":{"type":"Point","coordinates":[34.910566855257166,-16.208311373880722]}},
{"type":"Feature","properties":{"AREA":0.0,"PERIMETER":0.0,"ID":"L1C","CAPTION":"L1C","STYLE":0,"Theft":null},"geometry":{"type":"Point","coordinates":[34.910567988650577,-16.20834269788114]}},
{"type":"Feature","properties":{"AREA":0.0,"PERIMETER":0.0,"ID":"M2A","CAPTION":"M2A","STYLE":0,"Theft":null},"geometry":{"type":"Point","coordinates":[34.876390013925068,-16.225067729488206]}},
{"type":"Feature","properties":{"AREA":0.0,"PERIMETER":0.0,"ID":"M2B","CAPTION":"M2B","STYLE":0,"Theft":null},"geometry":{"type":"Point","coordinates":[34.876406376702242,-16.225057932212408]}},
{"type":"Feature","properties":{"AREA":0.0,"PERIMETER":0.0,"ID":"M2C","CAPTION":"M2C","STYLE":0,"Theft":null},"geometry":{"type":"Point","coordinates":[34.876426532311456,-16.225045262373531]}},
{"type":"Feature","properties":{"AREA":0.0,"PERIMETER":0.0,"ID":"216","CAPTION":"216","STYLE":0,"Theft":null},"geometry":{"type":"Point","coordinates":[34.875348111899619,-16.230611971425553]}},
{"type":"Feature","properties":{"AREA":0.0,"PERIMETER":0.0,"ID":"411A","CAPTION":"411A","STYLE":0,"Theft":null},"geometry":{"type":"Point","coordinates":[34.848457345618563,-16.230433173531093]}},
{"type":"Feature","properties":{"AREA":0.0,"PERIMETER":0.0,"ID":"411B","CAPTION":"411B","STYLE":0,"Theft":null},"geometry":{"type":"Point","coordinates":[34.848458404321391,-16.230453575016181]}},
{"type":"Feature","properties":{"AREA":0.0,"PERIMETER":0.0,"ID":"411C","CAPTION":"411C","STYLE":0,"Theft":null},"geometry":{"type":"Point","coordinates":[34.848457454312587,-16.230475811357529]}},
{"type":"Feature","properties":{"AREA":0.0,"PERIMETER":0.0,"ID":"M3A","CAPTION":"M3A","STYLE":0,"Theft":null},"geometry":{"type":"Point","coordinates":[34.8540036686815,-16.219285027978206]}},
{"type":"Feature","properties":{"AREA":0.0,"PERIMETER":0.0,"ID":"M3B","CAPTION":"M3B","STYLE":0,"Theft":null},"geometry":{"type":"Point","coordinates":[34.85402173189366,-16.219271311465473]}},
{"type":"Feature","properties":{"AREA":0.0,"PERIMETER":0.0,"ID":"M3C","CAPTION":"M3C","STYLE":0,"Theft":null},"geometry":{"type":"Point","coordinates":[34.854040343022746,-16.219260603221759]}},
{"type":"Feature","properties":{"AREA":0.0,"PERIMETER":0.0,"ID":"M4B","CAPTION":"M4B","STYLE":0,"Theft":null},"geometry":{"type":"Point","coordinates":[34.823300533061989,-16.217956555175284]}},
{"type":"Feature","properties":{"AREA":0.0,"PERIMETER":0.0,"ID":"M4A","CAPTION":"M4A","STYLE":0,"Theft":null},"geometry":{"type":"Point","coordinates":[34.823301607716573,-16.217977784773804]}},
{"type":"Feature","properties":{"AREA":0.0,"PERIMETER":0.0,"ID":"470 LIFT A","CAPTION":"470 A","STYLE":0,"Theft":null},"geometry":{"type":"Point","coordinates":[34.812029784408757,-16.21823697969435]}},
{"type":"Feature","properties":{"AREA":0.0,"PERIMETER":0.0,"ID":"470 LIFT B","CAPTION":"470 B","STYLE":0,"Theft":null},"geometry":{"type":"Point","coordinates":[34.812030055216987,-16.218266591142218]}},
{"type":"Feature","properties":{"AREA":0.0,"PERIMETER":0.0,"ID":"L2A","CAPTION":"L2A","STYLE":0,"Theft":null},"geometry":{"type":"Point","coordinates":[34.895217990924507,-16.185469109285311]}},
{"type":"Feature","properties":{"AREA":0.0,"PERIMETER":0.0,"ID":"L2B","CAPTION":"L2B","STYLE":0,"Theft":null},"geometry":{"type":"Point","coordinates":[34.895234476464417,-16.185492643164995]}},
{"type":"Feature","properties":{"AREA":0.0,"PERIMETER":0.0,"ID":"L2C","CAPTION":"L2C","STYLE":0,"Theft":null},"geometry":{"type":"Point","coordinates":[34.895247478307653,-16.185511117870686]}},
{"type":"Feature","properties":{"AREA":0.0,"PERIMETER":0.0,"ID":"L3A","CAPTION":"L3A","STYLE":0,"Theft":"27m Cale"},"geometry":{"type":"Point","coordinates":[34.868415134569894,-16.199819768725995]}},
{"type":"Feature","properties":{"AREA":0.0,"PERIMETER":0.0,"ID":"L3B","CAPTION":"L3B","STYLE":0,"Theft":null},"geometry":{"type":"Point","coordinates":[34.86843396614325,-16.199808675581494]}},
{"type":"Feature","properties":{"AREA":0.0,"PERIMETER":0.0,"ID":"L3C","CAPTION":"L3C","STYLE":0,"Theft":null},"geometry":{"type":"Point","coordinates":[34.868450956852953,-16.199797598693383]}},
{"type":"Feature","properties":{"AREA":0.0,"PERIMETER":0.0,"ID":"L4C","CAPTION":"L4C","STYLE":0,"Theft":null},"geometry":{"type":"Point","coordinates":[34.844724685328337,-16.181880415180512]}},
{"type":"Feature","properties":{"AREA":0.0,"PERIMETER":0.0,"ID":"L4B","CAPTION":"L4B","STYLE":0,"Theft":null},"geometry":{"type":"Point","coordinates":[34.844726178874325,-16.181904876733032]}},
{"type":"Feature","properties":{"AREA":0.0,"PERIMETER":0.0,"ID":"L4A","CAPTION":"L4A","STYLE":0,"Theft":null},"geometry":{"type":"Point","coordinates":[34.844725767387636,-16.18192874295551]}},
{"type":"Feature","properties":{"AREA":0.0,"PERIMETER":0.0,"ID":"L5A","CAPTION":"L5A","STYLE":0,"Theft":null},"geometry":{"type":"Point","coordinates":[34.829883075069439,-16.182298801899606]}},
{"type":"Feature","properties":{"AREA":0.0,"PERIMETER":0.0,"ID":"L5B","CAPTION":"L5B","STYLE":0,"Theft":null},"geometry":{"type":"Point","coordinates":[34.829883255766553,-16.182318413180461]}},
{"type":"Feature","properties":{"AREA":0.0,"PERIMETER":0.0,"ID":"L5C","CAPTION":"L5C","STYLE":0,"Theft":null},"geometry":{"type":"Point","coordinates":[34.829882635072565,-16.182335768273543]}},
{"type":"Feature","properties":{"AREA":0.0,"PERIMETER":0.0,"ID":"L6A","CAPTION":"L6A","STYLE":0,"Theft":null},"geometry":{"type":"Point","coordinates":[34.807115201331641,-16.182949040699654]}},
{"type":"Feature","properties":{"AREA":0.0,"PERIMETER":0.0,"ID":"L6B","CAPTION":"L6B","STYLE":0,"Theft":null},"geometry":{"type":"Point","coordinates":[34.807114461225765,-16.182976248744012]}},
{"type":"Feature","properties":{"AREA":0.0,"PERIMETER":0.0,"ID":"KALIMA LIFT PUMP 1","CAPTION":"KALIMA 1","STYLE":0,"Theft":null},"geometry":{"type":"Point","coordinates":[34.879889671443003,-16.124908907095648]}},
{"type":"Feature","properties":{"AREA":0.0,"PERIMETER":0.0,"ID":"KALIMA LIFT PUMP 2","CAPTION":"KALIMA 2","STYLE":0,"Theft":null},"geometry":{"type":"Point","coordinates":[34.879906962602668,-16.12493717957318]}}
]
}
